{"type": "FeatureCollection", "features": [{"type": "Feature", "id": 16276, "geometry": {"type": "Polygon", "coordinates": [[[-1.40647724866216, 50.9129155507741], [-1.40487321044096, 50.9104994283767], [-1.40836667671215, 50.9086257507548], [-1.41133801821128, 50.9110152732332], [-1.41110953165704, 50.9135212786202], [-1.40647724866216, 50.9129155507741]]]}, "properties": {"FID": 16276, "LSOA21CD": "E01017136", "LSOA21NM": "Southampton 023A", "LSOA21NMW": " ", "BNG_E": 441690, "BNG_N": 112571, "LAT": 50.9111, "LONG": -1.40838, "GlobalID": "08e0b686-41d1-4d78-b647-423a49ec544a"}}, {"type": "Feature", "id": 16277, "geometry": {"type": "Polygon", "coordinates": [[[-1.4063257914813, 50.9139926882793], [-1.40647724866216, 50.9129155507741], [-1.41110953165704, 50.9135212786202], [-1.41133801821128, 50.9110152732332], [-1.41388496957029, 50.912173130608], [-1.41332319486695, 50.9146320365495], [-1.4063257914813, 50.9139926882793]]]}, "properties": {"FID": 16277, "LSOA21CD": "E01017137", "LSOA21NM": "Southampton 023B", "LSOA21NMW": " ", "BNG_E": 441406, "BNG_N": 112751, "LAT": 50.91274, "LONG": -1.4124, "GlobalID": "589dd66d-a7bd-40e6-bfb1-bbca3ebfff50"}}, {"type": "Feature", "id": 16278, "geometry": {"type": "Polygon", "coordinates": [[[-1.4063257914813, 50.9139926882793], [-1.41332319486695, 50.9146320365495], [-1.41388496957029, 50.912173130608], [-1.41534680051632, 50.9098812085605], [-1.41566061900952, 50.9113825971027], [-1.41541430186129, 50.9148658601022], [-1.40647947700979, 50.9166377902516], [-1.4063257914813, 50.9139926882793]]]}, "properties": {"FID": 16278, "LSOA21CD": "E01017138", "LSOA21NM": "Southampton 023C", "LSOA21NMW": " ", "BNG_E": 441274, "BNG_N": 112810, "LAT": 50.91328, "LONG": -1.41427, "GlobalID": "b361c5af-67bf-4ad7-8e4f-4c89c6fdde9b"}}, {"type": "Feature", "id": 16279, "geometry": {"type": "Polygon", "coordinates": [[[-1.39821114979024, 50.9080298637101], [-1.3942204084521, 50.9039228781572], [-1.39889146307462, 50.9004536881156], [-1.40080248317021, 50.9005218145621], [-1.40453405920194, 50.9069066398366], [-1.40118042639347, 50.9100966924454], [-1.39821114979024, 50.9080298637101]]]}, "properties": {"FID": 16279, "LSOA21CD": "E01017139", "LSOA21NM": "Southampton 033B", "LSOA21NMW": " ", "BNG_E": 442338, "BNG_N": 111840, "LAT": 50.90448, "LONG": -1.39925, "GlobalID": "ac1a0add-d0e7-4a98-ace6-047de51e048c"}}, {"type": "Feature", "id": 16280, "geometry": {"type": "Polygon", "coordinates": [[[-1.39134502163935, 50.9424246028094], [-1.38892077225642, 50.9401501330993], [-1.39824731591725, 50.9410819860957], [-1.39869473716397, 50.9382865785562], [-1.40276476063365, 50.9394920088205], [-1.40083594499269, 50.9419117008086], [-1.39749009542645, 50.9446031748775], [-1.39134502163935, 50.9424246028094]]]}, "properties": {"FID": 16280, "LSOA21CD": "E01017144", "LSOA21NM": "Southampton 001A", "LSOA21NMW": " ", "BNG_E": 442473, "BNG_N": 115931, "LAT": 50.94125, "LONG": -1.39685, "GlobalID": "8590d1ab-1d76-4f60-b911-df3acefc9be4"}}, {"type": "Feature", "id": 16281, "geometry": {"type": "Polygon", "coordinates": [[[-1.39082611550871, 50.9465190183764], [-1.38944504680122, 50.9438762228741], [-1.39134502163935, 50.9424246028094], [-1.39749009542645, 50.9446031748775], [-1.4012946256355, 50.9455873038766], [-1.39840863821668, 50.9486907776555], [-1.40471812849242, 50.948258187081], [-1.40925854639891, 50.95169038397], [-1.40635616424186, 50.9561195561943], [-1.40257429836075, 50.9552855201481], [-1.40160425817016, 50.9505540465194], [-1.39286169681607, 50.9493821938784], [-1.39082611550871, 50.9465190183764]]]}, "properties": {"FID": 16281, "LSOA21CD": "E01017145", "LSOA21NM": "Southampton 001B", "LSOA21NMW": " ", "BNG_E": 442329, "BNG_N": 116823, "LAT": 50.94929, "LONG": -1.3988, "GlobalID": "706593b5-d86e-401e-8ca7-394a878361ec"}}, {"type": "Feature", "id": 16282, "geometry": {"type": "Polygon", "coordinates": [[[-1.41326705969399, 50.94984538909], [-1.40083594499269, 50.9419117008086], [-1.40276476063365, 50.9394920088205], [-1.39869473716397, 50.9382865785562], [-1.39914198358597, 50.93781058962], [-1.40240681121511, 50.9369795313098], [-1.40724530907558, 50.9420992287628], [-1.41992627478636, 50.9437896245709], [-1.42406189845504, 50.9434504756409], [-1.42404828707994, 50.9435281130352], [-1.4237007883686, 50.9472499033914], [-1.42104029409338, 50.9517059620755], [-1.41326705969399, 50.94984538909]]]}, "properties": {"FID": 16282, "LSOA21CD": "E01017146", "LSOA21NM": "Southampton 001C", "LSOA21NMW": " ", "BNG_E": 441245, "BNG_N": 116269, "LAT": 50.94438, "LONG": -1.41429, "GlobalID": "25389b7a-673c-43e5-b179-7e445044f1e9"}}, {"type": "Feature", "id": 16283, "geometry": {"type": "Polygon", "coordinates": [[[-1.41199764306267, 50.9346928923555], [-1.41914248722433, 50.934169260859], [-1.42174430275274, 50.9366505617587], [-1.41970070134443, 50.9399721797213], [-1.41186261770394, 50.9380779334601], [-1.41199764306267, 50.9346928923555]]]}, "properties": {"FID": 16283, "LSOA21CD": "E01017147", "LSOA21NM": "Southampton 006A", "LSOA21NMW": " ", "BNG_E": 441065, "BNG_N": 115407, "LAT": 50.93664, "LONG": -1.41695, "GlobalID": "cd2e4e7d-94db-417d-b6c1-e31e7f5040ba"}}, {"type": "Feature", "id": 16284, "geometry": {"type": "Polygon", "coordinates": [[[-1.39749009542645, 50.9446031748775], [-1.40083594499269, 50.9419117008086], [-1.41326705969399, 50.94984538909], [-1.40925854639891, 50.95169038397], [-1.40471812849242, 50.948258187081], [-1.39840863821668, 50.9486907776555], [-1.4012946256355, 50.9455873038766], [-1.39749009542645, 50.9446031748775]]]}, "properties": {"FID": 16284, "LSOA21CD": "E01017148", "LSOA21NM": "Southampton 001D", "LSOA21NMW": " ", "BNG_E": 441875, "BNG_N": 116649, "LAT": 50.94775, "LONG": -1.40528, "GlobalID": "e28f4445-239c-4ca7-8bfb-b0597dbfdb5b"}}, {"type": "Feature", "id": 16285, "geometry": {"type": "Polygon", "coordinates": [[[-1.38892077225642, 50.9401501330993], [-1.38883646609023, 50.9400951868424], [-1.3896744196666, 50.9385395792172], [-1.3964299200943, 50.937993333579], [-1.39914198358597, 50.93781058962], [-1.39869473716397, 50.9382865785562], [-1.39824731591725, 50.9410819860957], [-1.38892077225642, 50.9401501330993]]]}, "properties": {"FID": 16285, "LSOA21CD": "E01017149", "LSOA21NM": "Southampton 001E", "LSOA21NMW": " ", "BNG_E": 442805, "BNG_N": 115729, "LAT": 50.93941, "LONG": -1.39215, "GlobalID": "499e71d6-43de-4a60-8c79-6aa6d5c060ea"}}, {"type": "Feature", "id": 16286, "geometry": {"type": "Polygon", "coordinates": [[[-1.40240681121511, 50.9369795313098], [-1.40652969024469, 50.9358433353709], [-1.41199764306267, 50.9346928923555], [-1.41186261770394, 50.9380779334601], [-1.41970070134443, 50.9399721797213], [-1.41992627478636, 50.9437896245709], [-1.40724530907558, 50.9420992287628], [-1.40240681121511, 50.9369795313098]]]}, "properties": {"FID": 16286, "LSOA21CD": "E01017150", "LSOA21NM": "Southampton 006B", "LSOA21NMW": " ", "BNG_E": 441471, "BNG_N": 115715, "LAT": 50.93939, "LONG": -1.41114, "GlobalID": "e8fa20ec-c00d-49da-bd36-190ffbdaeb20"}}, {"type": "Feature", "id": 16287, "geometry": {"type": "Polygon", "coordinates": [[[-1.41970070134443, 50.9399721797213], [-1.42174430275274, 50.9366505617587], [-1.42971710398241, 50.9299068521918], [-1.43194630389925, 50.9318179763212], [-1.43157044197649, 50.9338434942113], [-1.43179944252201, 50.9358421229404], [-1.42406189845504, 50.9434504756409], [-1.41992627478636, 50.9437896245709], [-1.41970070134443, 50.9399721797213]]]}, "properties": {"FID": 16287, "LSOA21CD": "E01017151", "LSOA21NM": "Southampton 006C", "LSOA21NMW": " ", "BNG_E": 440470, "BNG_N": 115616, "LAT": 50.93857, "LONG": -1.42539, "GlobalID": "ab439454-a431-4364-b145-929a3df753d6"}}, {"type": "Feature", "id": 16288, "geometry": {"type": "Polygon", "coordinates": [[[-1.41914248722433, 50.934169260859], [-1.42708241286443, 50.929635997936], [-1.42971710398241, 50.9299068521918], [-1.42174430275274, 50.9366505617587], [-1.41914248722433, 50.934169260859]]]}, "properties": {"FID": 16288, "LSOA21CD": "E01017152", "LSOA21NM": "Southampton 006D", "LSOA21NMW": " ", "BNG_E": 440563, "BNG_N": 114992, "LAT": 50.93295, "LONG": -1.42414, "GlobalID": "4d11e21a-52ba-4837-844a-aea914addee6"}}, {"type": "Feature", "id": 16289, "geometry": {"type": "Polygon", "coordinates": [[[-1.39470238710136, 50.9078567951864], [-1.39821114979024, 50.9080298637101], [-1.40118042639347, 50.9100966924454], [-1.40164157778218, 50.9106015121349], [-1.40119382693371, 50.9115199828608], [-1.39649006456839, 50.9117543847921], [-1.39470238710136, 50.9078567951864]]]}, "properties": {"FID": 16289, "LSOA21CD": "E01017153", "LSOA21NM": "Southampton 022A", "LSOA21NMW": " ", "BNG_E": 442320, "BNG_N": 112453, "LAT": 50.90999, "LONG": -1.39943, "GlobalID": "9f232f5a-7c0d-420d-807c-0fa82003e92d"}}, {"type": "Feature", "id": 16290, "geometry": {"type": "MultiPolygon", "coordinates": [[[[-1.38349436845893, 50.9150652971625], [-1.38553512385367, 50.9146851343794], [-1.38712711455601, 50.9164407117686], [-1.38349436845893, 50.9150652971625]]], [[[-1.3920639013637, 50.9047141225067], [-1.39262465195012, 50.9046661795364], [-1.39216437378912, 50.9081763343539], [-1.39255889358842, 50.9110510155716], [-1.38942348561147, 50.917324175771], [-1.38968402309308, 50.9151647838416], [-1.37751590942638, 50.9113063319423], [-1.388281272141, 50.9050292952828], [-1.38827985285347, 50.9049819654552], [-1.3920639013637, 50.9047141225067]]]]}, "properties": {"FID": 16290, "LSOA21CD": "E01017154", "LSOA21NM": "Southampton 022B", "LSOA21NMW": " ", "BNG_E": 443400, "BNG_N": 112561, "LAT": 50.91088, "LONG": -1.38406, "GlobalID": "e3b58ac5-d06c-448a-8a1f-bf3745016315"}}, {"type": "Feature", "id": 16291, "geometry": {"type": "Polygon", "coordinates": [[[-1.38919483119713, 50.9191542462763], [-1.38927415395492, 50.9185074158517], [-1.38942348561147, 50.917324175771], [-1.39255889358842, 50.9110510155716], [-1.39539450586773, 50.9119495913989], [-1.39734396592908, 50.9152340219136], [-1.39030362433328, 50.9198315382985], [-1.38919483119713, 50.9191542462763]]]}, "properties": {"FID": 16291, "LSOA21CD": "E01017155", "LSOA21NM": "Southampton 022C", "LSOA21NMW": " ", "BNG_E": 442713, "BNG_N": 113147, "LAT": 50.9162, "LONG": -1.39376, "GlobalID": "cd8b7620-b82d-436c-b2b2-66030c248098"}}, {"type": "Feature", "id": 16292, "geometry": {"type": "Polygon", "coordinates": [[[-1.39255889358842, 50.9110510155716], [-1.39216437378912, 50.9081763343539], [-1.39470238710136, 50.9078567951864], [-1.39649006456839, 50.9117543847921], [-1.39539450586773, 50.9119495913989], [-1.39255889358842, 50.9110510155716]]]}, "properties": {"FID": 16292, "LSOA21CD": "E01017156", "LSOA21NM": "Southampton 022D", "LSOA21NMW": " ", "BNG_E": 442621, "BNG_N": 112453, "LAT": 50.90997, "LONG": -1.39515, "GlobalID": "5202cd90-a632-4b06-a1fe-a3379aad1e52"}}, {"type": "Feature", "id": 16293, "geometry": {"type": "Polygon", "coordinates": [[[-1.39563443533956, 50.9251973766712], [-1.39543486928895, 50.9222311439801], [-1.39947945524613, 50.9212737811069], [-1.40082283153245, 50.9233271120785], [-1.39620660823407, 50.925305332458], [-1.39563443533956, 50.9251973766712]]]}, "properties": {"FID": 16293, "LSOA21CD": "E01017157", "LSOA21NM": "Southampton 017A", "LSOA21NMW": " ", "BNG_E": 442419, "BNG_N": 113889, "LAT": 50.9229, "LONG": -1.39786, "GlobalID": "ba23c281-dba9-405f-95f3-298e42f5d9ae"}}, {"type": "Feature", "id": 16294, "geometry": {"type": "Polygon", "coordinates": [[[-1.39947945524613, 50.9212737811069], [-1.39868808524655, 50.9186005355738], [-1.40126130247821, 50.9159096363774], [-1.40557559212797, 50.9165179755318], [-1.4049211184986, 50.9215380015085], [-1.40501907386695, 50.921978915147], [-1.40082283153245, 50.9233271120785], [-1.39947945524613, 50.9212737811069]]]}, "properties": {"FID": 16294, "LSOA21CD": "E01017158", "LSOA21NM": "Southampton 017B", "LSOA21NMW": " ", "BNG_E": 442130, "BNG_N": 113492, "LAT": 50.91935, "LONG": -1.40201, "GlobalID": "0a5a79d1-7ef0-426c-a3dd-778732f5e5ae"}}, {"type": "Feature", "id": 16295, "geometry": {"type": "Polygon", "coordinates": [[[-1.39543978800754, 50.9212477970999], [-1.3953372380055, 50.9190110829319], [-1.39868808524655, 50.9186005355738], [-1.39947945524613, 50.9212737811069], [-1.39543486928895, 50.9222311439801], [-1.39543978800754, 50.9212477970999]]]}, "properties": {"FID": 16295, "LSOA21CD": "E01017159", "LSOA21NM": "Southampton 017C", "LSOA21NMW": " ", "BNG_E": 442452, "BNG_N": 113623, "LAT": 50.9205, "LONG": -1.39742, "GlobalID": "aaabe2a8-9013-4bcf-b274-fb1738d9b116"}}, {"type": "Feature", "id": 16296, "geometry": {"type": "Polygon", "coordinates": [[[-1.39734396592908, 50.9152340219136], [-1.39958725066395, 50.9146288520309], [-1.40126130247821, 50.9159096363774], [-1.39868808524655, 50.9186005355738], [-1.3953372380055, 50.9190110829319], [-1.39393362483799, 50.9196201290293], [-1.39030362433328, 50.9198315382985], [-1.39734396592908, 50.9152340219136]]]}, "properties": {"FID": 16296, "LSOA21CD": "E01017160", "LSOA21NM": "Southampton 017D", "LSOA21NMW": " ", "BNG_E": 442358, "BNG_N": 113283, "LAT": 50.91745, "LONG": -1.39879, "GlobalID": "16e465c1-6e14-40fe-a367-b56a57793443"}}, {"type": "Feature", "id": 16297, "geometry": {"type": "Polygon", "coordinates": [[[-1.33137877676597, 50.9113929719954], [-1.33481665359196, 50.9097041656309], [-1.34192471523483, 50.91131325709], [-1.3392100581576, 50.9146050185588], [-1.33104697820103, 50.9150649966237], [-1.33137877676597, 50.9113929719954]]]}, "properties": {"FID": 16297, "LSOA21CD": "E01017162", "LSOA21NM": "Southampton 025A", "LSOA21NMW": " ", "BNG_E": 446682, "BNG_N": 112752, "LAT": 50.91234, "LONG": -1.33735, "GlobalID": "a6a13202-fe8e-410b-a542-d7948f76cc60"}}, {"type": "Feature", "id": 16298, "geometry": {"type": "Polygon", "coordinates": [[[-1.32995742191365, 50.9070588481996], [-1.33255897851029, 50.9048523833217], [-1.33555785959119, 50.9065969148861], [-1.33481665359196, 50.9097041656309], [-1.33137877676597, 50.9113929719954], [-1.32995742191365, 50.9070588481996]]]}, "properties": {"FID": 16298, "LSOA21CD": "E01017163", "LSOA21NM": "Southampton 025B", "LSOA21NMW": " ", "BNG_E": 447038, "BNG_N": 112259, "LAT": 50.90788, "LONG": -1.33235, "GlobalID": "904fac1c-48d3-405a-a072-738402da4895"}}, {"type": "Feature", "id": 16299, "geometry": {"type": "Polygon", "coordinates": [[[-1.34192471523483, 50.91131325709], [-1.3451380814968, 50.9080191011158], [-1.35409425951591, 50.9123920232352], [-1.34938489190279, 50.9145921206852], [-1.34126976238487, 50.9145960295256], [-1.3392100581576, 50.9146050185588], [-1.34192471523483, 50.91131325709]]]}, "properties": {"FID": 16299, "LSOA21CD": "E01017164", "LSOA21NM": "Southampton 025C", "LSOA21NMW": " ", "BNG_E": 446009, "BNG_N": 112634, "LAT": 50.91134, "LONG": -1.34694, "GlobalID": "60bff9eb-7096-4a86-9920-4af64454ccf7"}}, {"type": "Feature", "id": 16300, "geometry": {"type": "Polygon", "coordinates": [[[-1.3298156431236, 50.9149408296538], [-1.32464049608941, 50.9084335190971], [-1.328644349896, 50.906588568803], [-1.32995742191365, 50.9070588481996], [-1.33137877676597, 50.9113929719954], [-1.33104697820103, 50.9150649966237], [-1.3298156431236, 50.9149408296538]]]}, "properties": {"FID": 16300, "LSOA21CD": "E01017165", "LSOA21NM": "Southampton 025D", "LSOA21NMW": " ", "BNG_E": 447286, "BNG_N": 112476, "LAT": 50.90981, "LONG": -1.3288, "GlobalID": "52cade7b-66e3-4114-ba13-614825f4929e"}}, {"type": "Feature", "id": 16301, "geometry": {"type": "Polygon", "coordinates": [[[-1.33481665359196, 50.9097041656309], [-1.33555785959119, 50.9065969148861], [-1.33945444036942, 50.9051840827181], [-1.34474269128751, 50.907826755565], [-1.3451380814968, 50.9080191011158], [-1.34192471523483, 50.91131325709], [-1.33481665359196, 50.9097041656309]]]}, "properties": {"FID": 16301, "LSOA21CD": "E01017166", "LSOA21NM": "Southampton 025E", "LSOA21NMW": " ", "BNG_E": 446544, "BNG_N": 112333, "LAT": 50.90859, "LONG": -1.33937, "GlobalID": "82af274e-cd84-41e6-aa86-c462b7013049"}}, {"type": "Feature", "id": 16302, "geometry": {"type": "Polygon", "coordinates": [[[-1.33255897851029, 50.9048523833217], [-1.33179468732841, 50.9009858137406], [-1.33526487024648, 50.9014738787032], [-1.33688607412227, 50.9039398021681], [-1.33945444036942, 50.9051840827181], [-1.33555785959119, 50.9065969148861], [-1.33255897851029, 50.9048523833217]]]}, "properties": {"FID": 16302, "LSOA21CD": "E01017167", "LSOA21NM": "Southampton 027A", "LSOA21NMW": " ", "BNG_E": 446891, "BNG_N": 111783, "LAT": 50.90361, "LONG": -1.33451, "GlobalID": "aeaf0ffe-6ca3-4106-80b5-eb8aad3a5069"}}, {"type": "Feature", "id": 16303, "geometry": {"type": "Polygon", "coordinates": [[[-1.328644349896, 50.906588568803], [-1.32208928812776, 50.9009293058589], [-1.32755991674895, 50.8994437585021], [-1.33179468732841, 50.9009858137406], [-1.33255897851029, 50.9048523833217], [-1.32995742191365, 50.9070588481996], [-1.328644349896, 50.906588568803]]]}, "properties": {"FID": 16303, "LSOA21CD": "E01017168", "LSOA21NM": "Southampton 027B", "LSOA21NMW": " ", "BNG_E": 447392, "BNG_N": 111724, "LAT": 50.90304, "LONG": -1.32739, "GlobalID": "5b1f92e6-f33a-4203-bfe1-eec0f0617313"}}, {"type": "Feature", "id": 16304, "geometry": {"type": "Polygon", "coordinates": [[[-1.33526487024648, 50.9014738787032], [-1.33846319876614, 50.898823351604], [-1.34358656766374, 50.8999176720368], [-1.34541847112899, 50.900967345535], [-1.34088278108519, 50.9024804348961], [-1.33688607412227, 50.9039398021681], [-1.33526487024648, 50.9014738787032]]]}, "properties": {"FID": 16304, "LSOA21CD": "E01017169", "LSOA21NM": "Southampton 027C", "LSOA21NMW": " ", "BNG_E": 446533, "BNG_N": 111522, "LAT": 50.9013, "LONG": -1.33963, "GlobalID": "8ae69d1f-5b5b-4b60-83e0-a747eb8e41a9"}}, {"type": "Feature", "id": 16305, "geometry": {"type": "Polygon", "coordinates": [[[-1.33179468732841, 50.9009858137406], [-1.32755991674895, 50.8994437585021], [-1.33505506156448, 50.8973713689061], [-1.34058217543981, 50.8962378900125], [-1.3435175270623, 50.8989722185419], [-1.34358656766374, 50.8999176720368], [-1.33846319876614, 50.898823351604], [-1.33526487024648, 50.9014738787032], [-1.33179468732841, 50.9009858137406]]]}, "properties": {"FID": 16305, "LSOA21CD": "E01017170", "LSOA21NM": "Southampton 027D", "LSOA21NMW": " ", "BNG_E": 446934, "BNG_N": 111263, "LAT": 50.89894, "LONG": -1.33396, "GlobalID": "b33f3ac0-9a18-4b84-be17-8318d4fa03db"}}, {"type": "Feature", "id": 16306, "geometry": {"type": "Polygon", "coordinates": [[[-1.3697383842496, 50.9167003464523], [-1.37585423662798, 50.9176995373638], [-1.37594399343204, 50.9215466393502], [-1.36894407360104, 50.9242164366911], [-1.36817328550168, 50.9242413089262], [-1.3697383842496, 50.9167003464523]]]}, "properties": {"FID": 16306, "LSOA21CD": "E01017171", "LSOA21NM": "Southampton 014A", "LSOA21NMW": " ", "BNG_E": 444238, "BNG_N": 113573, "LAT": 50.91992, "LONG": -1.37202, "GlobalID": "651e0c69-df5e-4419-9ddd-20fcd0b73cf1"}}, {"type": "Feature", "id": 16307, "geometry": {"type": "Polygon", "coordinates": [[[-1.37585423662798, 50.9176995373638], [-1.37154683689102, 50.9119588020017], [-1.37178821374147, 50.9119604520141], [-1.37216544078783, 50.9122930057241], [-1.3767477171279, 50.916321848389], [-1.38349436845893, 50.9150652971625], [-1.38712711455601, 50.9164407117686], [-1.38765250195773, 50.9170200518224], [-1.37952589102291, 50.920670743486], [-1.37736396901948, 50.9191766120416], [-1.37594399343204, 50.9215466393502], [-1.37585423662798, 50.9176995373638]]]}, "properties": {"FID": 16307, "LSOA21CD": "E01017172", "LSOA21NM": "Southampton 014B", "LSOA21NMW": " ", "BNG_E": 443572, "BNG_N": 113220, "LAT": 50.9168, "LONG": -1.38153, "GlobalID": "a8f584bd-0b00-40dd-acf3-36f24ee45127"}}, {"type": "Feature", "id": 16308, "geometry": {"type": "Polygon", "coordinates": [[[-1.36830296525203, 50.9283334002606], [-1.36425322924323, 50.9254411729685], [-1.36649245578988, 50.9160404401268], [-1.3697383842496, 50.9167003464523], [-1.36817328550168, 50.9242413089262], [-1.37075340237066, 50.9286906135356], [-1.36830296525203, 50.9283334002606]]]}, "properties": {"FID": 16308, "LSOA21CD": "E01017173", "LSOA21NM": "Southampton 014C", "LSOA21NMW": " ", "BNG_E": 444576, "BNG_N": 113528, "LAT": 50.91949, "LONG": -1.36721, "GlobalID": "d1d7d651-a591-497a-87db-7dc94aecaab1"}}, {"type": "Feature", "id": 16309, "geometry": {"type": "Polygon", "coordinates": [[[-1.35393391770418, 50.9362240833211], [-1.3559312087637, 50.9332718395437], [-1.35644690693377, 50.9330490713431], [-1.36214286339646, 50.9333782609721], [-1.35975963372075, 50.930796186758], [-1.36321948844878, 50.930235039337], [-1.36670043608965, 50.9331968216679], [-1.37121326705015, 50.9329358117685], [-1.36815500794834, 50.9359327684736], [-1.35894360704977, 50.9379964145029], [-1.35393391770418, 50.9362240833211]]]}, "properties": {"FID": 16309, "LSOA21CD": "E01017174", "LSOA21NM": "Southampton 008A", "LSOA21NMW": " ", "BNG_E": 444925, "BNG_N": 115160, "LAT": 50.93414, "LONG": -1.36205, "GlobalID": "9a0012bc-da94-4623-b9e3-7961d3a3b81c"}}, {"type": "Feature", "id": 16310, "geometry": {"type": "Polygon", "coordinates": [[[-1.36670043608965, 50.9331968216679], [-1.36830296525203, 50.9283334002606], [-1.37075340237066, 50.9286906135356], [-1.37452847329097, 50.9282295366954], [-1.38052556977449, 50.9315830357692], [-1.3805683164164, 50.9316977184055], [-1.38055626538659, 50.9324258973596], [-1.37950539683922, 50.9342852340511], [-1.37092526684278, 50.9357201907198], [-1.37022550295733, 50.9357836183192], [-1.36815500794834, 50.9359327684736], [-1.37121326705015, 50.9329358117685], [-1.36670043608965, 50.9331968216679]]]}, "properties": {"FID": 16310, "LSOA21CD": "E01017175", "LSOA21NM": "Southampton 008B", "LSOA21NMW": " ", "BNG_E": 444085, "BNG_N": 114876, "LAT": 50.93165, "LONG": -1.37404, "GlobalID": "9079c002-c70b-4b27-af49-3220d4692109"}}, {"type": "Feature", "id": 16311, "geometry": {"type": "Polygon", "coordinates": [[[-1.36321948844878, 50.930235039337], [-1.35958674428983, 50.9255981294506], [-1.36045258862475, 50.9248103704701], [-1.36291392623612, 50.9250954214821], [-1.36425322924323, 50.9254411729685], [-1.36830296525203, 50.9283334002606], [-1.36670043608965, 50.9331968216679], [-1.36321948844878, 50.930235039337]]]}, "properties": {"FID": 16311, "LSOA21CD": "E01017176", "LSOA21NM": "Southampton 008C", "LSOA21NMW": " ", "BNG_E": 444792, "BNG_N": 114492, "LAT": 50.92814, "LONG": -1.36402, "GlobalID": "e8637938-e22b-4ce5-8289-10e5473626fc"}}, {"type": "Feature", "id": 16312, "geometry": {"type": "Polygon", "coordinates": [[[-1.37452847329097, 50.9282295366954], [-1.37401439801428, 50.9241383670148], [-1.36894407360104, 50.9242164366911], [-1.37594399343204, 50.9215466393502], [-1.37736396901948, 50.9191766120416], [-1.37952589102291, 50.920670743486], [-1.37690718286638, 50.9218468992228], [-1.38013320294887, 50.9305303417324], [-1.38052556977449, 50.9315830357692], [-1.37452847329097, 50.9282295366954]]]}, "properties": {"FID": 16312, "LSOA21CD": "E01017177", "LSOA21NM": "Southampton 014D", "LSOA21NMW": " ", "BNG_E": 444053, "BNG_N": 114082, "LAT": 50.92451, "LONG": -1.37459, "GlobalID": "75d37807-b50a-4dc3-9b10-87e71d9ee62c"}}, {"type": "Feature", "id": 16313, "geometry": {"type": "Polygon", "coordinates": [[[-1.36817328550168, 50.9242413089262], [-1.36894407360104, 50.9242164366911], [-1.37401439801428, 50.9241383670148], [-1.37452847329097, 50.9282295366954], [-1.37075340237066, 50.9286906135356], [-1.36817328550168, 50.9242413089262]]]}, "properties": {"FID": 16313, "LSOA21CD": "E01017178", "LSOA21NM": "Southampton 014E", "LSOA21NMW": " ", "BNG_E": 444273, "BNG_N": 114345, "LAT": 50.92686, "LONG": -1.37142, "GlobalID": "b3285d7c-2579-4f3e-8de1-4d7a49d739d0"}}, {"type": "Feature", "id": 16314, "geometry": {"type": "Polygon", "coordinates": [[[-1.35644690693377, 50.9330490713431], [-1.35793263377062, 50.9307329776106], [-1.35958674428983, 50.9255981294506], [-1.36321948844878, 50.930235039337], [-1.35975963372075, 50.930796186758], [-1.36214286339646, 50.9333782609721], [-1.35644690693377, 50.9330490713431]]]}, "properties": {"FID": 16314, "LSOA21CD": "E01017179", "LSOA21NM": "Southampton 008D", "LSOA21NMW": " ", "BNG_E": 445078, "BNG_N": 114500, "LAT": 50.92819, "LONG": -1.35995, "GlobalID": "ec94dcfb-f731-466a-bc88-12755545e0d4"}}, {"type": "Feature", "id": 16315, "geometry": {"type": "Polygon", "coordinates": [[[-1.43267418050016, 50.9436644591631], [-1.4357828001089, 50.9408498718839], [-1.43709713979138, 50.9439527999332], [-1.44257423720364, 50.9440834715581], [-1.44187910554349, 50.9471548810675], [-1.43238732480194, 50.9482451045971], [-1.43267418050016, 50.9436644591631]]]}, "properties": {"FID": 16315, "LSOA21CD": "E01017180", "LSOA21NM": "Southampton 002A", "LSOA21NMW": " ", "BNG_E": 439630, "BNG_N": 116312, "LAT": 50.94488, "LONG": -1.43727, "GlobalID": "37d9f9ce-0000-44a4-8e94-ae2c697ad13b"}}, {"type": "Feature", "id": 16316, "geometry": {"type": "Polygon", "coordinates": [[[-1.44187910554349, 50.9471548810675], [-1.44257423720364, 50.9440834715581], [-1.44355075228644, 50.9432335417815], [-1.45056317418979, 50.942715846559], [-1.45221567583165, 50.9437114589112], [-1.45167956297174, 50.9492320155657], [-1.44187910554349, 50.9471548810675]]]}, "properties": {"FID": 16316, "LSOA21CD": "E01017181", "LSOA21NM": "Southampton 002B", "LSOA21NMW": " ", "BNG_E": 439005, "BNG_N": 116464, "LAT": 50.94629, "LONG": -1.44615, "GlobalID": "2a789a80-a8e3-4d42-9fb9-b7e8fd7aa9ee"}}, {"type": "Feature", "id": 16317, "geometry": {"type": "Polygon", "coordinates": [[[-1.44734219739617, 50.9406683419962], [-1.44660686983654, 50.9382541587446], [-1.45121519315273, 50.9371454080592], [-1.45056317418979, 50.942715846559], [-1.44355075228644, 50.9432335417815], [-1.44734219739617, 50.9406683419962]]]}, "properties": {"FID": 16317, "LSOA21CD": "E01017182", "LSOA21NM": "Southampton 004A", "LSOA21NMW": " ", "BNG_E": 438880, "BNG_N": 115844, "LAT": 50.94073, "LONG": -1.448, "GlobalID": "c9bee12a-30d5-4cbb-a6c2-034705bf7e78"}}, {"type": "Feature", "id": 16318, "geometry": {"type": "Polygon", "coordinates": [[[-1.4237007883686, 50.9472499033914], [-1.42404828707994, 50.9435281130352], [-1.43267418050016, 50.9436644591631], [-1.43238732480194, 50.9482451045971], [-1.4237007883686, 50.9472499033914]]]}, "properties": {"FID": 16318, "LSOA21CD": "E01017183", "LSOA21NM": "Southampton 002C", "LSOA21NMW": " ", "BNG_E": 440278, "BNG_N": 116340, "LAT": 50.94509, "LONG": -1.42804, "GlobalID": "ae3a6f24-1db1-456b-8f59-ad163d783577"}}, {"type": "Feature", "id": 16319, "geometry": {"type": "Polygon", "coordinates": [[[-1.45221567583165, 50.9437114589112], [-1.45056317418979, 50.942715846559], [-1.45121519315273, 50.9371454080592], [-1.45335698647583, 50.936690395588], [-1.4538111071661, 50.9371736021446], [-1.45944534207129, 50.943176353174], [-1.45934652174718, 50.9434862373053], [-1.45595549737063, 50.94606832121], [-1.45221567583165, 50.9437114589112]]]}, "properties": {"FID": 16319, "LSOA21CD": "E01017184", "LSOA21NM": "Southampton 004B", "LSOA21NMW": " ", "BNG_E": 438414, "BNG_N": 115938, "LAT": 50.9416, "LONG": -1.45462, "GlobalID": "35fe8f7f-490c-4d1f-82de-370023fb8208"}}, {"type": "Feature", "id": 16320, "geometry": {"type": "Polygon", "coordinates": [[[-1.42404828707994, 50.9435281130352], [-1.42406189845504, 50.9434504756409], [-1.43179944252201, 50.9358421229404], [-1.4357828001089, 50.9408498718839], [-1.43267418050016, 50.9436644591631], [-1.42404828707994, 50.9435281130352]]]}, "properties": {"FID": 16320, "LSOA21CD": "E01017185", "LSOA21NM": "Southampton 002D", "LSOA21NMW": " ", "BNG_E": 440120, "BNG_N": 115757, "LAT": 50.93986, "LONG": -1.43036, "GlobalID": "db1e62d2-7f27-4f88-aca5-1ca24959725c"}}, {"type": "Feature", "id": 16321, "geometry": {"type": "Polygon", "coordinates": [[[-1.43603899825895, 50.9371647593125], [-1.44648473729553, 50.938011397708], [-1.44660686983654, 50.9382541587446], [-1.44734219739617, 50.9406683419962], [-1.44051681340109, 50.942246427288], [-1.43603899825895, 50.9371647593125]]]}, "properties": {"FID": 16321, "LSOA21CD": "E01017186", "LSOA21NM": "Southampton 004C", "LSOA21NMW": " ", "BNG_E": 439337, "BNG_N": 115747, "LAT": 50.93982, "LONG": -1.4415, "GlobalID": "e52c695e-dd84-40c5-8091-7ea08e81ae32"}}, {"type": "Feature", "id": 16322, "geometry": {"type": "Polygon", "coordinates": [[[-1.4357828001089, 50.9408498718839], [-1.43179944252201, 50.9358421229404], [-1.43157044197649, 50.9338434942113], [-1.43625245020899, 50.9343204669802], [-1.43603899825895, 50.9371647593125], [-1.44051681340109, 50.942246427288], [-1.44734219739617, 50.9406683419962], [-1.44355075228644, 50.9432335417815], [-1.44257423720364, 50.9440834715581], [-1.43709713979138, 50.9439527999332], [-1.4357828001089, 50.9408498718839]]]}, "properties": {"FID": 16322, "LSOA21CD": "E01017187", "LSOA21NM": "Southampton 002E", "LSOA21NMW": " ", "BNG_E": 439502, "BNG_N": 115916, "LAT": 50.94133, "LONG": -1.43914, "GlobalID": "6976f032-dd9e-410e-9825-68d02365f725"}}, {"type": "Feature", "id": 16323, "geometry": {"type": "Polygon", "coordinates": [[[-1.43603899825895, 50.9371647593125], [-1.43625245020899, 50.9343204669802], [-1.44391369348849, 50.933243424215], [-1.44494515760774, 50.9333636800158], [-1.44648473729553, 50.938011397708], [-1.43603899825895, 50.9371647593125]]]}, "properties": {"FID": 16323, "LSOA21CD": "E01017188", "LSOA21NM": "Southampton 004D", "LSOA21NMW": " ", "BNG_E": 439403, "BNG_N": 115278, "LAT": 50.9356, "LONG": -1.44061, "GlobalID": "603c3fac-5bac-4a68-850b-16a8bb8b3961"}}, {"type": "Feature", "id": 16324, "geometry": {"type": "Polygon", "coordinates": [[[-1.41537354205813, 50.9169800726231], [-1.41541430186129, 50.9148658601022], [-1.41566061900952, 50.9113825971027], [-1.42005072343544, 50.9123650814995], [-1.41934039696213, 50.9171518725876], [-1.41537354205813, 50.9169800726231]]]}, "properties": {"FID": 16324, "LSOA21CD": "E01017189", "LSOA21NM": "Southampton 020A", "LSOA21NMW": " ", "BNG_E": 441030, "BNG_N": 112819, "LAT": 50.91338, "LONG": -1.41774, "GlobalID": "065fd1ca-a592-4ac3-9d1c-8c5d0e5985eb"}}, {"type": "Feature", "id": 16325, "geometry": {"type": "Polygon", "coordinates": [[[-1.40557559212797, 50.9165179755318], [-1.4058397265437, 50.9165549092507], [-1.40647947700979, 50.9166377902516], [-1.41541430186129, 50.9148658601022], [-1.41537354205813, 50.9169800726231], [-1.41469182907295, 50.9190904873647], [-1.41336448585383, 50.9196889222628], [-1.40557559212797, 50.9165179755318]]]}, "properties": {"FID": 16325, "LSOA21CD": "E01017190", "LSOA21NM": "Southampton 020B", "LSOA21NMW": " ", "BNG_E": 441527, "BNG_N": 113255, "LAT": 50.91726, "LONG": -1.41062, "GlobalID": "779045ba-5abd-45e9-bc86-2fe23a3af2c6"}}, {"type": "Feature", "id": 16326, "geometry": {"type": "Polygon", "coordinates": [[[-1.42005072343544, 50.9123650814995], [-1.42339669037426, 50.9123520807886], [-1.42451830638674, 50.9134354591124], [-1.42213201387198, 50.9160528286969], [-1.41934039696213, 50.9171518725876], [-1.42005072343544, 50.9123650814995]]]}, "properties": {"FID": 16326, "LSOA21CD": "E01017191", "LSOA21NM": "Southampton 020C", "LSOA21NMW": " ", "BNG_E": 440817, "BNG_N": 112945, "LAT": 50.91452, "LONG": -1.42075, "GlobalID": "65ceb926-47b8-4e71-a98f-f02415414da5"}}, {"type": "Feature", "id": 16327, "geometry": {"type": "Polygon", "coordinates": [[[-1.42213201387198, 50.9160528286969], [-1.42451830638674, 50.9134354591124], [-1.43211242037909, 50.9150962455942], [-1.43272040817023, 50.9167734130631], [-1.42772689949056, 50.9178843319947], [-1.42725556860503, 50.9175230523727], [-1.42179252256366, 50.9189479484423], [-1.42213201387198, 50.9160528286969]]]}, "properties": {"FID": 16327, "LSOA21CD": "E01017192", "LSOA21NM": "Southampton 021A", "LSOA21NMW": " ", "BNG_E": 440352, "BNG_N": 113129, "LAT": 50.91621, "LONG": -1.42735, "GlobalID": "08b5043a-dc77-4802-a9a0-761b893eba6c"}}, {"type": "Feature", "id": 16328, "geometry": {"type": "Polygon", "coordinates": [[[-1.42451830638674, 50.9134354591124], [-1.43201504937307, 50.9114639668664], [-1.43354954919177, 50.9124012975976], [-1.43211242037909, 50.9150962455942], [-1.42451830638674, 50.9134354591124]]]}, "properties": {"FID": 16328, "LSOA21CD": "E01017193", "LSOA21NM": "Southampton 021B", "LSOA21NMW": " ", "BNG_E": 440272, "BNG_N": 112845, "LAT": 50.91366, "LONG": -1.42852, "GlobalID": "98d21832-b4e1-43b8-90f2-34208dde2954"}}, {"type": "Feature", "id": 16329, "geometry": {"type": "Polygon", "coordinates": [[[-1.43354954919177, 50.9124012975976], [-1.43201504937307, 50.9114639668664], [-1.41969075910391, 50.9071088866376], [-1.42339669037426, 50.9123520807886], [-1.42005072343544, 50.9123650814995], [-1.41566061900952, 50.9113825971027], [-1.41534680051632, 50.9098812085605], [-1.41810834763497, 50.900993198424], [-1.41823157215843, 50.9010314385022], [-1.43248580173196, 50.9054537044529], [-1.44044254559556, 50.9079211619149], [-1.44096436395827, 50.9080829545675], [-1.44102910611315, 50.9080569574424], [-1.4438038900048, 50.9121565534587], [-1.43923569884492, 50.913084644957], [-1.43354954919177, 50.9124012975976]]]}, "properties": {"FID": 16329, "LSOA21CD": "E01017194", "LSOA21NM": "Southampton 021C", "LSOA21NMW": " ", "BNG_E": 440485, "BNG_N": 112102, "LAT": 50.90697, "LONG": -1.42557, "GlobalID": "c27ffccc-e13f-4266-8345-371ab57f0c78"}}, {"type": "Feature", "id": 16330, "geometry": {"type": "Polygon", "coordinates": [[[-1.42339669037426, 50.9123520807886], [-1.41969075910391, 50.9071088866376], [-1.43201504937307, 50.9114639668664], [-1.42451830638674, 50.9134354591124], [-1.42339669037426, 50.9123520807886]]]}, "properties": {"FID": 16330, "LSOA21CD": "E01017195", "LSOA21NM": "Southampton 021D", "LSOA21NMW": " ", "BNG_E": 440420, "BNG_N": 112472, "LAT": 50.9103, "LONG": -1.42645, "GlobalID": "20b66548-145c-4108-bf7b-f7baa3a23d4c"}}, {"type": "Feature", "id": 16331, "geometry": {"type": "Polygon", "coordinates": [[[-1.4049211184986, 50.9215380015085], [-1.40557559212797, 50.9165179755318], [-1.41336448585383, 50.9196889222628], [-1.41006839844507, 50.9225087837116], [-1.4049211184986, 50.9215380015085]]]}, "properties": {"FID": 16331, "LSOA21CD": "E01017196", "LSOA21NM": "Southampton 020D", "LSOA21NMW": " ", "BNG_E": 441659, "BNG_N": 113504, "LAT": 50.91949, "LONG": -1.40871, "GlobalID": "401c064b-a57d-43b6-959f-ec4fe488042c"}}, {"type": "Feature", "id": 16332, "geometry": {"type": "Polygon", "coordinates": [[[-1.41469182907295, 50.9190904873647], [-1.41537354205813, 50.9169800726231], [-1.41934039696213, 50.9171518725876], [-1.42213201387198, 50.9160528286969], [-1.42179252256366, 50.9189479484423], [-1.42725556860503, 50.9175230523727], [-1.42203294888758, 50.9214015113114], [-1.41469182907295, 50.9190904873647]]]}, "properties": {"FID": 16332, "LSOA21CD": "E01017197", "LSOA21NM": "Southampton 020E", "LSOA21NMW": " ", "BNG_E": 441002, "BNG_N": 113412, "LAT": 50.91871, "LONG": -1.41807, "GlobalID": "8c374119-d324-434d-bdef-71af894046fc"}}, {"type": "Feature", "id": 16333, "geometry": {"type": "Polygon", "coordinates": [[[-1.33241812063345, 50.9181340615679], [-1.3298156431236, 50.9149408296538], [-1.33104697820103, 50.9150649966237], [-1.3392100581576, 50.9146050185588], [-1.34126976238487, 50.9145960295256], [-1.3432708625208, 50.9164421910734], [-1.33665258563972, 50.9204961620609], [-1.33241812063345, 50.9181340615679]]]}, "properties": {"FID": 16333, "LSOA21CD": "E01017198", "LSOA21NM": "Southampton 018A", "LSOA21NMW": " ", "BNG_E": 446713, "BNG_N": 113361, "LAT": 50.91782, "LONG": -1.33683, "GlobalID": "68fd590c-357b-494c-b20a-fb1392085de4"}}, {"type": "Feature", "id": 16334, "geometry": {"type": "Polygon", "coordinates": [[[-1.34436643088117, 50.9172123324062], [-1.3432708625208, 50.9164421910734], [-1.34126976238487, 50.9145960295256], [-1.34938489190279, 50.9145921206852], [-1.3549233958454, 50.9193579516792], [-1.34436643088117, 50.9172123324062]]]}, "properties": {"FID": 16334, "LSOA21CD": "E01017199", "LSOA21NM": "Southampton 018B", "LSOA21NMW": " ", "BNG_E": 445877, "BNG_N": 113280, "LAT": 50.91716, "LONG": -1.34874, "GlobalID": "26322ae4-5f81-47c0-87c9-4cf0dbafa4ec"}}, {"type": "Feature", "id": 16335, "geometry": {"type": "Polygon", "coordinates": [[[-1.3549233958454, 50.9193579516792], [-1.34938489190279, 50.9145921206852], [-1.35409425951591, 50.9123920232352], [-1.35613497645753, 50.9134848549502], [-1.36249285833327, 50.9155163854021], [-1.36025584287579, 50.9178051131389], [-1.35589712347141, 50.9204733586737], [-1.3549233958454, 50.9193579516792]]]}, "properties": {"FID": 16335, "LSOA21CD": "E01017200", "LSOA21NM": "Southampton 016A", "LSOA21NMW": " ", "BNG_E": 445352, "BNG_N": 113260, "LAT": 50.91702, "LONG": -1.35621, "GlobalID": "1cf4a75d-eb19-4114-a66d-649e8c1991d6"}}, {"type": "Feature", "id": 16336, "geometry": {"type": "Polygon", "coordinates": [[[-1.3558810138557, 50.9294669241884], [-1.35348665945384, 50.9265476626488], [-1.35518166777622, 50.9248963732587], [-1.36045258862475, 50.9248103704701], [-1.35958674428983, 50.9255981294506], [-1.35793263377062, 50.9307329776106], [-1.3558810138557, 50.9294669241884]]]}, "properties": {"FID": 16336, "LSOA21CD": "E01017201", "LSOA21NM": "Southampton 016B", "LSOA21NMW": " ", "BNG_E": 445290, "BNG_N": 114408, "LAT": 50.92735, "LONG": -1.35695, "GlobalID": "571515a7-6257-4208-b8e3-55192b76632c"}}, {"type": "Feature", "id": 16337, "geometry": {"type": "Polygon", "coordinates": [[[-1.36045258862475, 50.9248103704701], [-1.35518166777622, 50.9248963732587], [-1.35214611377142, 50.9216267344362], [-1.35589712347141, 50.9204733586737], [-1.36025584287579, 50.9178051131389], [-1.35734487612853, 50.9213033460583], [-1.36291392623612, 50.9250954214821], [-1.36045258862475, 50.9248103704701]]]}, "properties": {"FID": 16337, "LSOA21CD": "E01017202", "LSOA21NM": "Southampton 016C", "LSOA21NMW": " ", "BNG_E": 445209, "BNG_N": 113911, "LAT": 50.92288, "LONG": -1.35816, "GlobalID": "7ae3bf81-0d93-4e61-9cce-16c4b514f467"}}, {"type": "Feature", "id": 16338, "geometry": {"type": "Polygon", "coordinates": [[[-1.36291392623612, 50.9250954214821], [-1.35734487612853, 50.9213033460583], [-1.36025584287579, 50.9178051131389], [-1.36249285833327, 50.9155163854021], [-1.36566837201262, 50.9157577258284], [-1.36649245578988, 50.9160404401268], [-1.36425322924323, 50.9254411729685], [-1.36291392623612, 50.9250954214821]]]}, "properties": {"FID": 16338, "LSOA21CD": "E01017203", "LSOA21NM": "Southampton 016D", "LSOA21NMW": " ", "BNG_E": 444917, "BNG_N": 113725, "LAT": 50.92123, "LONG": -1.36234, "GlobalID": "34234274-1904-465c-8862-d7991c18fffc"}}, {"type": "Feature", "id": 16339, "geometry": {"type": "Polygon", "coordinates": [[[-1.35014188313082, 50.9257998739873], [-1.34737253040013, 50.9245376961038], [-1.34645279340029, 50.9216707112306], [-1.35214611377142, 50.9216267344362], [-1.35518166777622, 50.9248963732587], [-1.35348665945384, 50.9265476626488], [-1.35014188313082, 50.9257998739873]]]}, "properties": {"FID": 16339, "LSOA21CD": "E01017204", "LSOA21NM": "Southampton 016E", "LSOA21NMW": " ", "BNG_E": 445678, "BNG_N": 113997, "LAT": 50.92362, "LONG": -1.35148, "GlobalID": "e4c61230-2a2f-47f6-a91f-d6c44d818bb3"}}, {"type": "Feature", "id": 16340, "geometry": {"type": "Polygon", "coordinates": [[[-1.33665258563972, 50.9204961620609], [-1.3432708625208, 50.9164421910734], [-1.34436643088117, 50.9172123324062], [-1.34293732903584, 50.923121373701], [-1.33948754665633, 50.9237127365376], [-1.33665258563972, 50.9204961620609]]]}, "properties": {"FID": 16340, "LSOA21CD": "E01017205", "LSOA21NM": "Southampton 018C", "LSOA21NMW": " ", "BNG_E": 446494, "BNG_N": 113716, "LAT": 50.92103, "LONG": -1.3399, "GlobalID": "a5a55722-8a25-4016-ae3e-3855d5f859f8"}}, {"type": "Feature", "id": 16341, "geometry": {"type": "Polygon", "coordinates": [[[-1.34293732903584, 50.923121373701], [-1.34436643088117, 50.9172123324062], [-1.3549233958454, 50.9193579516792], [-1.35589712347141, 50.9204733586737], [-1.35214611377142, 50.9216267344362], [-1.34645279340029, 50.9216707112306], [-1.34737253040013, 50.9245376961038], [-1.34293732903584, 50.923121373701]]]}, "properties": {"FID": 16341, "LSOA21CD": "E01017206", "LSOA21NM": "Southampton 018D", "LSOA21NMW": " ", "BNG_E": 446100, "BNG_N": 113695, "LAT": 50.92087, "LONG": -1.34551, "GlobalID": "7e9ac6da-1df3-4829-b863-3261231378a3"}}, {"type": "Feature", "id": 16342, "geometry": {"type": "Polygon", "coordinates": [[[-1.44193652853578, 50.9262361579022], [-1.4427112451876, 50.9257475732983], [-1.44720847259013, 50.9243552295894], [-1.45117085338838, 50.9275589941894], [-1.44795599626459, 50.9308392192557], [-1.44791767943759, 50.93087967534], [-1.44193652853578, 50.9262361579022]]]}, "properties": {"FID": 16342, "LSOA21CD": "E01017207", "LSOA21NM": "Southampton 015A", "LSOA21NMW": " ", "BNG_E": 438978, "BNG_N": 114271, "LAT": 50.92657, "LONG": -1.44677, "GlobalID": "99d93b7b-15fc-4e51-bb6c-210dd0dee762"}}, {"type": "Feature", "id": 16343, "geometry": {"type": "Polygon", "coordinates": [[[-1.44720847259013, 50.9243552295894], [-1.44752170006794, 50.9204798005811], [-1.45067329972106, 50.9188644199274], [-1.44997434504222, 50.9222086848276], [-1.45511037160923, 50.9234116952091], [-1.45454124429873, 50.924009812147], [-1.45117085338838, 50.9275589941894], [-1.44720847259013, 50.9243552295894]]]}, "properties": {"FID": 16343, "LSOA21CD": "E01017208", "LSOA21NM": "Southampton 019A", "LSOA21NMW": " ", "BNG_E": 438735, "BNG_N": 114012, "LAT": 50.92426, "LONG": -1.45025, "GlobalID": "ccc4692e-7528-4287-9bec-c2df13916804"}}, {"type": "Feature", "id": 16344, "geometry": {"type": "Polygon", "coordinates": [[[-1.43552972141204, 50.9239188020394], [-1.43849393480449, 50.9214000436541], [-1.44406970197912, 50.9218794243668], [-1.4427112451876, 50.9257475732983], [-1.44193652853578, 50.9262361579022], [-1.43552972141204, 50.9239188020394]]]}, "properties": {"FID": 16344, "LSOA21CD": "E01017209", "LSOA21NM": "Southampton 015B", "LSOA21NMW": " ", "BNG_E": 439455, "BNG_N": 113932, "LAT": 50.92349, "LONG": -1.44002, "GlobalID": "e4a37a69-4126-4292-a3c5-31a7b6381503"}}, {"type": "Feature", "id": 16345, "geometry": {"type": "Polygon", "coordinates": [[[-1.45067329972106, 50.9188644199274], [-1.45700802008522, 50.9170160422675], [-1.45723968373686, 50.9201850073497], [-1.45511037160923, 50.9234116952091], [-1.44997434504222, 50.9222086848276], [-1.45067329972106, 50.9188644199274]]]}, "properties": {"FID": 16345, "LSOA21CD": "E01017210", "LSOA21NM": "Southampton 019B", "LSOA21NMW": " ", "BNG_E": 438498, "BNG_N": 113595, "LAT": 50.92053, "LONG": -1.45367, "GlobalID": "98ce18fa-62d8-4c91-8651-301e1dd2cb0b"}}, {"type": "Feature", "id": 16346, "geometry": {"type": "Polygon", "coordinates": [[[-1.43513271883992, 50.9236118824608], [-1.4319641454276, 50.9211582254865], [-1.4372551722604, 50.9181100515712], [-1.43796660853192, 50.9177402304005], [-1.44132159771989, 50.9196047933794], [-1.43849393480449, 50.9214000436541], [-1.43552972141204, 50.9239188020394], [-1.43513271883992, 50.9236118824608]]]}, "properties": {"FID": 16346, "LSOA21CD": "E01017211", "LSOA21NM": "Southampton 015C", "LSOA21NMW": " ", "BNG_E": 439695, "BNG_N": 113731, "LAT": 50.92167, "LONG": -1.43663, "GlobalID": "25f4d713-57cf-4bb9-b1e1-965f83d4762e"}}, {"type": "Feature", "id": 16347, "geometry": {"type": "Polygon", "coordinates": [[[-1.43849393480449, 50.9214000436541], [-1.44132159771989, 50.9196047933794], [-1.44475200529513, 50.9177022496456], [-1.44752170006794, 50.9204798005811], [-1.44720847259013, 50.9243552295894], [-1.4427112451876, 50.9257475732983], [-1.44406970197912, 50.9218794243668], [-1.43849393480449, 50.9214000436541]]]}, "properties": {"FID": 16347, "LSOA21CD": "E01017212", "LSOA21NM": "Southampton 015D", "LSOA21NMW": " ", "BNG_E": 439161, "BNG_N": 113652, "LAT": 50.921, "LONG": -1.44423, "GlobalID": "460803cb-f6ef-4beb-a0bf-6f1423fbe584"}}, {"type": "Feature", "id": 16348, "geometry": {"type": "Polygon", "coordinates": [[[-1.43115111276831, 50.920529950331], [-1.42772689949056, 50.9178843319947], [-1.43272040817023, 50.9167734130631], [-1.4372551722604, 50.9181100515712], [-1.4319641454276, 50.9211582254865], [-1.43115111276831, 50.920529950331]]]}, "properties": {"FID": 16348, "LSOA21CD": "E01017213", "LSOA21NM": "Southampton 015E", "LSOA21NMW": " ", "BNG_E": 439989, "BNG_N": 113459, "LAT": 50.9192, "LONG": -1.43247, "GlobalID": "e5af13a8-18e7-4303-9db7-125ec2058ce1"}}, {"type": "Feature", "id": 16349, "geometry": {"type": "Polygon", "coordinates": [[[-1.44021821051365, 50.914795255751], [-1.43923569884492, 50.913084644957], [-1.4438038900048, 50.9121565534587], [-1.44102910611315, 50.9080569574424], [-1.45098061575981, 50.904060284871], [-1.46461624589559, 50.9100056769804], [-1.45700802008522, 50.9170160422675], [-1.45067329972106, 50.9188644199274], [-1.4482432817345, 50.9155457329384], [-1.44021821051365, 50.914795255751]]]}, "properties": {"FID": 16349, "LSOA21CD": "E01017214", "LSOA21NM": "Southampton 019C", "LSOA21NMW": " ", "BNG_E": 438629, "BNG_N": 112598, "LAT": 50.91155, "LONG": -1.45191, "GlobalID": "1987736c-9002-4b6d-a77d-2312b3e66d7d"}}, {"type": "Feature", "id": 16350, "geometry": {"type": "Polygon", "coordinates": [[[-1.44132159771989, 50.9196047933794], [-1.43796660853192, 50.9177402304005], [-1.44021821051365, 50.914795255751], [-1.4482432817345, 50.9155457329384], [-1.45067329972106, 50.9188644199274], [-1.44752170006794, 50.9204798005811], [-1.44475200529513, 50.9177022496456], [-1.44132159771989, 50.9196047933794]]]}, "properties": {"FID": 16350, "LSOA21CD": "E01017215", "LSOA21NM": "Southampton 019D", "LSOA21NMW": " ", "BNG_E": 439249, "BNG_N": 113259, "LAT": 50.91746, "LONG": -1.44302, "GlobalID": "7f601b63-e99b-4ec5-a910-8d47cad4356e"}}, {"type": "Feature", "id": 16351, "geometry": {"type": "Polygon", "coordinates": [[[-1.43272040817023, 50.9167734130631], [-1.43211242037909, 50.9150962455942], [-1.43354954919177, 50.9124012975976], [-1.43923569884492, 50.913084644957], [-1.44021821051365, 50.914795255751], [-1.43796660853192, 50.9177402304005], [-1.4372551722604, 50.9181100515712], [-1.43272040817023, 50.9167734130631]]]}, "properties": {"FID": 16351, "LSOA21CD": "E01017216", "LSOA21NM": "Southampton 019E", "LSOA21NMW": " ", "BNG_E": 439756, "BNG_N": 113010, "LAT": 50.91518, "LONG": -1.43584, "GlobalID": "2bbbb087-b46f-4528-9705-d454ec3fd20b"}}, {"type": "Feature", "id": 16352, "geometry": {"type": "Polygon", "coordinates": [[[-1.36528922786486, 50.9084607068754], [-1.37277562247037, 50.9046406805621], [-1.38204225250656, 50.9056974919522], [-1.37568861974571, 50.9095784613027], [-1.36528922786486, 50.9084607068754]]]}, "properties": {"FID": 16352, "LSOA21CD": "E01017217", "LSOA21NM": "Southampton 024A", "LSOA21NMW": " ", "BNG_E": 444096, "BNG_N": 112157, "LAT": 50.9072, "LONG": -1.37421, "GlobalID": "2b0241c2-5232-476d-abc3-036ff73fb30a"}}, {"type": "Feature", "id": 16353, "geometry": {"type": "Polygon", "coordinates": [[[-1.36067650180783, 50.9061910171658], [-1.36243346442545, 50.9045376675434], [-1.36584484913016, 50.9043667932876], [-1.37280385750293, 50.9044435089749], [-1.37277562247037, 50.9046406805621], [-1.36528922786486, 50.9084607068754], [-1.36067650180783, 50.9061910171658]]]}, "properties": {"FID": 16353, "LSOA21CD": "E01017218", "LSOA21NM": "Southampton 028A", "LSOA21NMW": " ", "BNG_E": 444735, "BNG_N": 112025, "LAT": 50.90596, "LONG": -1.36514, "GlobalID": "01fb73b1-ce40-441f-aca1-c6a44c8b83f8"}}, {"type": "Feature", "id": 16354, "geometry": {"type": "Polygon", "coordinates": [[[-1.37277562247037, 50.9046406805621], [-1.37280385750293, 50.9044435089749], [-1.37452889212421, 50.8998517558622], [-1.37726212080202, 50.8979689088452], [-1.38254250887923, 50.8979267861257], [-1.38245311047603, 50.8979649582517], [-1.38252070466166, 50.8981359625814], [-1.38483538441716, 50.9039910631456], [-1.38204225250656, 50.9056974919522], [-1.37277562247037, 50.9046406805621]]]}, "properties": {"FID": 16354, "LSOA21CD": "E01017219", "LSOA21NM": "Southampton 028B", "LSOA21NMW": " ", "BNG_E": 443787, "BNG_N": 111503, "LAT": 50.90134, "LONG": -1.37868, "GlobalID": "0eafd052-b05b-4d16-a35c-9da83fbe1005"}}, {"type": "Feature", "id": 16355, "geometry": {"type": "Polygon", "coordinates": [[[-1.36066225899741, 50.9007376932998], [-1.3653522298261, 50.896831523693], [-1.36962981546325, 50.8982869317386], [-1.36995435906373, 50.8983878259031], [-1.36513129438263, 50.8978888888857], [-1.36850580577637, 50.9025256846909], [-1.36584484913016, 50.9043667932876], [-1.36243346442545, 50.9045376675434], [-1.36456506635625, 50.9025148219746], [-1.36066225899741, 50.9007376932998]]]}, "properties": {"FID": 16355, "LSOA21CD": "E01017220", "LSOA21NM": "Southampton 028C", "LSOA21NMW": " ", "BNG_E": 444730, "BNG_N": 111570, "LAT": 50.90187, "LONG": -1.36526, "GlobalID": "6630d7dd-48f9-4a56-89a8-27a9b71915e7"}}, {"type": "Feature", "id": 16356, "geometry": {"type": "Polygon", "coordinates": [[[-1.36584484913016, 50.9043667932876], [-1.36850580577637, 50.9025256846909], [-1.37452889212421, 50.8998517558622], [-1.37280385750293, 50.9044435089749], [-1.36584484913016, 50.9043667932876]]]}, "properties": {"FID": 16356, "LSOA21CD": "E01017221", "LSOA21NM": "Southampton 028D", "LSOA21NMW": " ", "BNG_E": 444371, "BNG_N": 111647, "LAT": 50.90259, "LONG": -1.37036, "GlobalID": "a4f38dbc-0522-4d4d-b456-64ff9f68749b"}}, {"type": "Feature", "id": 16357, "geometry": {"type": "Polygon", "coordinates": [[[-1.36995435906373, 50.8983878259031], [-1.37726212080202, 50.8979689088452], [-1.37452889212421, 50.8998517558622], [-1.36850580577637, 50.9025256846909], [-1.36513129438263, 50.8978888888857], [-1.36995435906373, 50.8983878259031]]]}, "properties": {"FID": 16357, "LSOA21CD": "E01017222", "LSOA21NM": "Southampton 028E", "LSOA21NMW": " ", "BNG_E": 444512, "BNG_N": 111387, "LAT": 50.90024, "LONG": -1.36838, "GlobalID": "37c03f1e-5e09-4a4d-b140-a79f6d9de535"}}, {"type": "Feature", "id": 16358, "geometry": {"type": "Polygon", "coordinates": [[[-1.3697383842496, 50.9167003464523], [-1.36649245578988, 50.9160404401268], [-1.36566837201262, 50.9157577258284], [-1.36473903684536, 50.9131438145458], [-1.36789677494663, 50.9104999375163], [-1.37154683689102, 50.9119588020017], [-1.37585423662798, 50.9176995373638], [-1.3697383842496, 50.9167003464523]]]}, "properties": {"FID": 16358, "LSOA21CD": "E01017223", "LSOA21NM": "Southampton 024B", "LSOA21NMW": " ", "BNG_E": 444350, "BNG_N": 112956, "LAT": 50.91436, "LONG": -1.3705, "GlobalID": "c6e6e1ef-26d5-45bc-987e-f67826de608d"}}, {"type": "Feature", "id": 16359, "geometry": {"type": "Polygon", "coordinates": [[[-1.36249285833327, 50.9155163854021], [-1.35613497645753, 50.9134848549502], [-1.35889772828195, 50.9091076631446], [-1.36473903684536, 50.9131438145458], [-1.36566837201262, 50.9157577258284], [-1.36249285833327, 50.9155163854021]]]}, "properties": {"FID": 16359, "LSOA21CD": "E01017224", "LSOA21NM": "Southampton 024C", "LSOA21NMW": " ", "BNG_E": 445021, "BNG_N": 112790, "LAT": 50.91282, "LONG": -1.36097, "GlobalID": "d13ed9e4-8be9-4242-bcc0-456b68b6ab05"}}, {"type": "Feature", "id": 16360, "geometry": {"type": "Polygon", "coordinates": [[[-1.35889772828195, 50.9091076631446], [-1.36004358859038, 50.9088167224965], [-1.36067650180783, 50.9061910171658], [-1.36528922786486, 50.9084607068754], [-1.37568861974571, 50.9095784613027], [-1.37178821374147, 50.9119604520141], [-1.37154683689102, 50.9119588020017], [-1.36789677494663, 50.9104999375163], [-1.36473903684536, 50.9131438145458], [-1.35889772828195, 50.9091076631446]]]}, "properties": {"FID": 16360, "LSOA21CD": "E01017225", "LSOA21NM": "Southampton 024D", "LSOA21NMW": " ", "BNG_E": 444816, "BNG_N": 112439, "LAT": 50.90968, "LONG": -1.36393, "GlobalID": "0e8cdc9e-147e-4149-b262-096a82c947e0"}}, {"type": "Feature", "id": 16361, "geometry": {"type": "Polygon", "coordinates": [[[-1.39804148071598, 50.9272953652916], [-1.39620660823407, 50.925305332458], [-1.40082283153245, 50.9233271120785], [-1.40501907386695, 50.921978915147], [-1.40560833863116, 50.9267773848037], [-1.40059388871639, 50.9265396926735], [-1.40243984987329, 50.9286064814672], [-1.39804148071598, 50.9272953652916]]]}, "properties": {"FID": 16361, "LSOA21CD": "E01017226", "LSOA21NM": "Southampton 009A", "LSOA21NMW": " ", "BNG_E": 442203, "BNG_N": 114152, "LAT": 50.92528, "LONG": -1.4009, "GlobalID": "c920a9c1-e723-46f0-bf0e-646ae4bf3f93"}}, {"type": "Feature", "id": 16362, "geometry": {"type": "Polygon", "coordinates": [[[-1.39112066176867, 50.9215626136384], [-1.39393362483799, 50.9196201290293], [-1.3953372380055, 50.9190110829319], [-1.39543978800754, 50.9212477970999], [-1.39229077765968, 50.9241719234694], [-1.39112066176867, 50.9215626136384]]]}, "properties": {"FID": 16362, "LSOA21CD": "E01017227", "LSOA21NM": "Southampton 013A", "LSOA21NMW": " ", "BNG_E": 442770, "BNG_N": 113809, "LAT": 50.92215, "LONG": -1.39287, "GlobalID": "acf7d267-c3f7-4e8f-ae70-2387ecc2367c"}}, {"type": "Feature", "id": 16363, "geometry": {"type": "Polygon", "coordinates": [[[-1.38160409618622, 50.9209078246894], [-1.38919483119713, 50.9191542462763], [-1.39030362433328, 50.9198315382985], [-1.39393362483799, 50.9196201290293], [-1.39112066176867, 50.9215626136384], [-1.38918409454739, 50.921928191239], [-1.38525642579544, 50.9251833366238], [-1.38160409618622, 50.9209078246894]]]}, "properties": {"FID": 16363, "LSOA21CD": "E01017228", "LSOA21NM": "Southampton 013B", "LSOA21NMW": " ", "BNG_E": 443090, "BNG_N": 113741, "LAT": 50.92152, "LONG": -1.38833, "GlobalID": "7e1b8034-e06c-42e9-9d1e-1a6a4ac6dac5"}}, {"type": "Feature", "id": 16364, "geometry": {"type": "Polygon", "coordinates": [[[-1.38498924963867, 50.9321900992537], [-1.38260462496149, 50.9320013507015], [-1.38425662164471, 50.9292015800558], [-1.38905090692558, 50.9285599106577], [-1.39313011656234, 50.9343173175424], [-1.38498924963867, 50.9321900992537]]]}, "properties": {"FID": 16364, "LSOA21CD": "E01017231", "LSOA21NM": "Southampton 009D", "LSOA21NMW": " ", "BNG_E": 443179, "BNG_N": 114793, "LAT": 50.93097, "LONG": -1.38694, "GlobalID": "a7f8b34f-8f79-49f5-98da-cd907c380356"}}, {"type": "Feature", "id": 16365, "geometry": {"type": "Polygon", "coordinates": [[[-1.39804148071598, 50.9272953652916], [-1.40243984987329, 50.9286064814672], [-1.40076270814364, 50.932974919202], [-1.39524517349998, 50.9322895358489], [-1.39360088413273, 50.92963980504], [-1.39804148071598, 50.9272953652916]]]}, "properties": {"FID": 16365, "LSOA21CD": "E01017232", "LSOA21NM": "Southampton 009E", "LSOA21NMW": " ", "BNG_E": 442402, "BNG_N": 114672, "LAT": 50.92994, "LONG": -1.39801, "GlobalID": "4d5b4001-13bb-4e3a-b29d-a8ece009960d"}}, {"type": "Feature", "id": 16366, "geometry": {"type": "MultiPolygon", "coordinates": [[[[-1.38082455327331, 50.9323702938748], [-1.38002211476626, 50.9212709053789], [-1.38160409618622, 50.9209078246894], [-1.38525642579544, 50.9251833366238], [-1.38425662164471, 50.9292015800558], [-1.38260462496149, 50.9320013507015], [-1.38082455327331, 50.9323702938748]]], [[[-1.38082455327331, 50.9323702938748], [-1.38055626538659, 50.9324258973596], [-1.3805683164164, 50.9316977184055], [-1.38082455327331, 50.9323702938748]]]]}, "properties": {"FID": 16366, "LSOA21CD": "E01017233", "LSOA21NM": "Southampton 013C", "LSOA21NMW": " ", "BNG_E": 443492, "BNG_N": 114380, "LAT": 50.92723, "LONG": -1.38253, "GlobalID": "bb4aae65-aa46-473c-83fe-da3c020fee24"}}, {"type": "Feature", "id": 16367, "geometry": {"type": "Polygon", "coordinates": [[[-1.38525642579544, 50.9251833366238], [-1.38918409454739, 50.921928191239], [-1.39112889076052, 50.927070474665], [-1.38905090692558, 50.9285599106577], [-1.38425662164471, 50.9292015800558], [-1.38525642579544, 50.9251833366238]]]}, "properties": {"FID": 16367, "LSOA21CD": "E01017234", "LSOA21NM": "Southampton 013D", "LSOA21NMW": " ", "BNG_E": 443169, "BNG_N": 114252, "LAT": 50.92611, "LONG": -1.38714, "GlobalID": "673013ef-4e7b-44bb-9eb5-e7c1013271ea"}}, {"type": "Feature", "id": 16368, "geometry": {"type": "Polygon", "coordinates": [[[-1.38918409454739, 50.921928191239], [-1.39112066176867, 50.9215626136384], [-1.39229077765968, 50.9241719234694], [-1.39543978800754, 50.9212477970999], [-1.39543486928895, 50.9222311439801], [-1.39563443533956, 50.9251973766712], [-1.39112889076052, 50.927070474665], [-1.38918409454739, 50.921928191239]]]}, "properties": {"FID": 16368, "LSOA21CD": "E01017235", "LSOA21NM": "Southampton 013E", "LSOA21NMW": " ", "BNG_E": 442830, "BNG_N": 114178, "LAT": 50.92547, "LONG": -1.39198, "GlobalID": "ae9e828d-e7e3-4904-8988-58b3ca8e14a6"}}, {"type": "Feature", "id": 16369, "geometry": {"type": "Polygon", "coordinates": [[[-1.46504211121132, 50.9314350623379], [-1.46192833976107, 50.9267629307802], [-1.46205534910842, 50.9249554088788], [-1.46630072024012, 50.9219983835094], [-1.46519388637795, 50.9267054351284], [-1.47026054286288, 50.9245931907413], [-1.47304024765852, 50.9297975589848], [-1.4704896820832, 50.9315201894483], [-1.46504211121132, 50.9314350623379]]]}, "properties": {"FID": 16369, "LSOA21CD": "E01017236", "LSOA21NM": "Southampton 012A", "LSOA21NMW": " ", "BNG_E": 437521, "BNG_N": 114537, "LAT": 50.92906, "LONG": -1.46747, "GlobalID": "62d750b6-bd8f-48dc-b2a3-eb1598777bcc"}}, {"type": "Feature", "id": 16370, "geometry": {"type": "Polygon", "coordinates": [[[-1.45802300790564, 50.926681210003], [-1.45454124429873, 50.924009812147], [-1.45511037160923, 50.9234116952091], [-1.45723968373686, 50.9201850073497], [-1.46205534910842, 50.9249554088788], [-1.46192833976107, 50.9267629307802], [-1.45802300790564, 50.926681210003]]]}, "properties": {"FID": 16370, "LSOA21CD": "E01017237", "LSOA21NM": "Southampton 012B", "LSOA21NMW": " ", "BNG_E": 438147, "BNG_N": 113947, "LAT": 50.92372, "LONG": -1.45863, "GlobalID": "ba0793e0-37bd-4252-8b5b-afc605d62dd9"}}, {"type": "Feature", "id": 16371, "geometry": {"type": "Polygon", "coordinates": [[[-1.44795599626459, 50.9308392192557], [-1.45117085338838, 50.9275589941894], [-1.45454124429873, 50.924009812147], [-1.45802300790564, 50.926681210003], [-1.45400309493401, 50.9279367751381], [-1.4563817300372, 50.9295511222675], [-1.45080935844919, 50.9326993469146], [-1.44795599626459, 50.9308392192557]]]}, "properties": {"FID": 16371, "LSOA21CD": "E01017238", "LSOA21NM": "Southampton 007A", "LSOA21NMW": " ", "BNG_E": 438536, "BNG_N": 114444, "LAT": 50.92816, "LONG": -1.45304, "GlobalID": "835f222a-53ff-439a-9efb-dac19428eb25"}}, {"type": "Feature", "id": 16372, "geometry": {"type": "Polygon", "coordinates": [[[-1.45723968373686, 50.9201850073497], [-1.45700802008522, 50.9170160422675], [-1.46461624589559, 50.9100056769804], [-1.46475794248893, 50.9101586767226], [-1.47321435260843, 50.9192875847979], [-1.4742307607557, 50.920668341279], [-1.46630072024012, 50.9219983835094], [-1.46205534910842, 50.9249554088788], [-1.45723968373686, 50.9201850073497]]]}, "properties": {"FID": 16372, "LSOA21CD": "E01017239", "LSOA21NM": "Southampton 012C", "LSOA21NMW": " ", "BNG_E": 437684, "BNG_N": 113122, "LAT": 50.91633, "LONG": -1.4653, "GlobalID": "3d4a178b-e4a0-4528-a3f7-6c8ab0ee148c"}}, {"type": "Feature", "id": 16373, "geometry": {"type": "Polygon", "coordinates": [[[-1.46630072024012, 50.9219983835094], [-1.4742307607557, 50.920668341279], [-1.47479651631876, 50.9213068071909], [-1.47591995913621, 50.9222074318209], [-1.47702365336155, 50.9233983922992], [-1.47732811021086, 50.9284618851331], [-1.47304024765852, 50.9297975589848], [-1.47026054286288, 50.9245931907413], [-1.46519388637795, 50.9267054351284], [-1.46630072024012, 50.9219983835094]]]}, "properties": {"FID": 16373, "LSOA21CD": "E01017240", "LSOA21NM": "Southampton 012D", "LSOA21NMW": " ", "BNG_E": 437276, "BNG_N": 113898, "LAT": 50.92333, "LONG": -1.47102, "GlobalID": "bb003889-d7ed-43d8-ab61-2c0f60b0aa1d"}}, {"type": "Feature", "id": 16374, "geometry": {"type": "Polygon", "coordinates": [[[-1.4538111071661, 50.9371736021446], [-1.45767867794242, 50.9372519109302], [-1.45824460672362, 50.9333276114779], [-1.46425663253944, 50.9350764983643], [-1.45944534207129, 50.943176353174], [-1.4538111071661, 50.9371736021446]]]}, "properties": {"FID": 16374, "LSOA21CD": "E01017241", "LSOA21NM": "Southampton 007B", "LSOA21NMW": " ", "BNG_E": 438077, "BNG_N": 115594, "LAT": 50.93853, "LONG": -1.45945, "GlobalID": "3b6eb189-5efc-4c4a-bb51-ca72e08aedf6"}}, {"type": "Feature", "id": 16375, "geometry": {"type": "Polygon", "coordinates": [[[-1.4538111071661, 50.9371736021446], [-1.45335698647583, 50.936690395588], [-1.44779662306754, 50.9313755904337], [-1.44791767943759, 50.93087967534], [-1.44795599626459, 50.9308392192557], [-1.45080935844919, 50.9326993469146], [-1.4563817300372, 50.9295511222675], [-1.45748616343976, 50.9300745327187], [-1.45824460672362, 50.9333276114779], [-1.45767867794242, 50.9372519109302], [-1.4538111071661, 50.9371736021446]]]}, "properties": {"FID": 16375, "LSOA21CD": "E01017242", "LSOA21NM": "Southampton 007C", "LSOA21NMW": " ", "BNG_E": 438495, "BNG_N": 115072, "LAT": 50.93381, "LONG": -1.45356, "GlobalID": "8ad66b81-6058-46bd-995f-ab1c398d1c35"}}, {"type": "Feature", "id": 16376, "geometry": {"type": "Polygon", "coordinates": [[[-1.44648473729553, 50.938011397708], [-1.44494515760774, 50.9333636800158], [-1.44779662306754, 50.9313755904337], [-1.45335698647583, 50.936690395588], [-1.45121519315273, 50.9371454080592], [-1.44660686983654, 50.9382541587446], [-1.44648473729553, 50.938011397708]]]}, "properties": {"FID": 16376, "LSOA21CD": "E01017243", "LSOA21NM": "Southampton 007D", "LSOA21NMW": " ", "BNG_E": 438803, "BNG_N": 115249, "LAT": 50.93538, "LONG": -1.44916, "GlobalID": "2dec6812-1bfc-4684-b30b-2a4465e9bb96"}}, {"type": "Feature", "id": 16377, "geometry": {"type": "Polygon", "coordinates": [[[-1.45824460672362, 50.9333276114779], [-1.45748616343976, 50.9300745327187], [-1.46504211121132, 50.9314350623379], [-1.4704896820832, 50.9315201894483], [-1.46425663253944, 50.9350764983643], [-1.45824460672362, 50.9333276114779]]]}, "properties": {"FID": 16377, "LSOA21CD": "E01017244", "LSOA21NM": "Southampton 007E", "LSOA21NMW": " ", "BNG_E": 437840, "BNG_N": 114931, "LAT": 50.93258, "LONG": -1.46289, "GlobalID": "70ced9e7-36cf-449c-95e7-9ec7f79599f2"}}, {"type": "Feature", "id": 16378, "geometry": {"type": "Polygon", "coordinates": [[[-1.45748616343976, 50.9300745327187], [-1.4563817300372, 50.9295511222675], [-1.45400309493401, 50.9279367751381], [-1.45802300790564, 50.926681210003], [-1.46192833976107, 50.9267629307802], [-1.46504211121132, 50.9314350623379], [-1.45748616343976, 50.9300745327187]]]}, "properties": {"FID": 16378, "LSOA21CD": "E01017245", "LSOA21NM": "Southampton 012E", "LSOA21NMW": " ", "BNG_E": 438019, "BNG_N": 114549, "LAT": 50.92914, "LONG": -1.46039, "GlobalID": "e66d0e00-f131-48f8-b5bc-7917aeb81214"}}, {"type": "Feature", "id": 16379, "geometry": {"type": "Polygon", "coordinates": [[[-1.43129988414127, 50.9279986917803], [-1.43513271883992, 50.9236118824608], [-1.43552972141204, 50.9239188020394], [-1.44193652853578, 50.9262361579022], [-1.43813370755138, 50.9285622472328], [-1.43619940204002, 50.9264026577294], [-1.43255551508414, 50.9299044164873], [-1.43129988414127, 50.9279986917803]]]}, "properties": {"FID": 16379, "LSOA21CD": "E01017246", "LSOA21NM": "Southampton 010A", "LSOA21NMW": " ", "BNG_E": 439903, "BNG_N": 114304, "LAT": 50.92681, "LONG": -1.43361, "GlobalID": "5bca366c-9bf2-45a4-9001-999c86e635c9"}}, {"type": "Feature", "id": 16380, "geometry": {"type": "Polygon", "coordinates": [[[-1.42570862821071, 50.9244792630826], [-1.42196162460365, 50.9219541369887], [-1.42203294888758, 50.9214015113114], [-1.42725556860503, 50.9175230523727], [-1.42772689949056, 50.9178843319947], [-1.43115111276831, 50.920529950331], [-1.42787737723896, 50.9201382728859], [-1.42792857544461, 50.9245520729999], [-1.42570862821071, 50.9244792630826]]]}, "properties": {"FID": 16380, "LSOA21CD": "E01017247", "LSOA21NM": "Southampton 011A", "LSOA21NMW": " ", "BNG_E": 440409, "BNG_N": 113685, "LAT": 50.92121, "LONG": -1.42647, "GlobalID": "888938fc-9efb-40c4-b744-9f4cc2b4debd"}}, {"type": "Feature", "id": 16381, "geometry": {"type": "Polygon", "coordinates": [[[-1.41587181898651, 50.9272777474313], [-1.42196162460365, 50.9219541369887], [-1.42570862821071, 50.9244792630826], [-1.42568904447046, 50.9281844987431], [-1.41587181898651, 50.9272777474313]]]}, "properties": {"FID": 16381, "LSOA21CD": "E01017248", "LSOA21NM": "Southampton 011B", "LSOA21NMW": " ", "BNG_E": 440806, "BNG_N": 114181, "LAT": 50.92564, "LONG": -1.42077, "GlobalID": "000aca33-cf7a-4c6c-a86a-5de4a863d55f"}}, {"type": "Feature", "id": 16382, "geometry": {"type": "Polygon", "coordinates": [[[-1.40560833863116, 50.9267773848037], [-1.40501907386695, 50.921978915147], [-1.4049211184986, 50.9215380015085], [-1.41006839844507, 50.9225087837116], [-1.41336448585383, 50.9196889222628], [-1.41469182907295, 50.9190904873647], [-1.42203294888758, 50.9214015113114], [-1.42196162460365, 50.9219541369887], [-1.41587181898651, 50.9272777474313], [-1.40586361768649, 50.9296391617814], [-1.40560833863116, 50.9267773848037]]]}, "properties": {"FID": 16382, "LSOA21CD": "E01017249", "LSOA21NM": "Southampton 011C", "LSOA21NMW": " ", "BNG_E": 441381, "BNG_N": 114032, "LAT": 50.92426, "LONG": -1.41261, "GlobalID": "bd2a3e0e-1236-4aad-aa85-f3ba1f518fe8"}}, {"type": "Feature", "id": 16383, "geometry": {"type": "Polygon", "coordinates": [[[-1.42792857544461, 50.9245520729999], [-1.42787737723896, 50.9201382728859], [-1.43115111276831, 50.920529950331], [-1.4319641454276, 50.9211582254865], [-1.43513271883992, 50.9236118824608], [-1.43129988414127, 50.9279986917803], [-1.42792857544461, 50.9245520729999]]]}, "properties": {"FID": 16383, "LSOA21CD": "E01017250", "LSOA21NM": "Southampton 010B", "LSOA21NMW": " ", "BNG_E": 440055, "BNG_N": 113926, "LAT": 50.9234, "LONG": -1.43148, "GlobalID": "b18a20aa-0157-4db4-923d-61da7d059e55"}}, {"type": "Feature", "id": 16384, "geometry": {"type": "Polygon", "coordinates": [[[-1.43157044197649, 50.9338434942113], [-1.43194630389925, 50.9318179763212], [-1.43255551508414, 50.9299044164873], [-1.43619940204002, 50.9264026577294], [-1.43813370755138, 50.9285622472328], [-1.44107367516236, 50.9300267142141], [-1.43801566610134, 50.9292032807531], [-1.43808421478281, 50.932191787275], [-1.44391369348849, 50.933243424215], [-1.43625245020899, 50.9343204669802], [-1.43157044197649, 50.9338434942113]]]}, "properties": {"FID": 16384, "LSOA21CD": "E01017251", "LSOA21NM": "Southampton 010C", "LSOA21NMW": " ", "BNG_E": 439611, "BNG_N": 114749, "LAT": 50.93083, "LONG": -1.43771, "GlobalID": "15a332e3-8184-4abb-a2e9-31ffba820170"}}, {"type": "Feature", "id": 16385, "geometry": {"type": "Polygon", "coordinates": [[[-1.40586361768649, 50.9296391617814], [-1.41587181898651, 50.9272777474313], [-1.42568904447046, 50.9281844987431], [-1.42708241286443, 50.929635997936], [-1.41914248722433, 50.934169260859], [-1.41199764306267, 50.9346928923555], [-1.40652969024469, 50.9358433353709], [-1.40586361768649, 50.9296391617814]]]}, "properties": {"FID": 16385, "LSOA21CD": "E01017252", "LSOA21NM": "Southampton 011D", "LSOA21NMW": " ", "BNG_E": 441201, "BNG_N": 114829, "LAT": 50.93144, "LONG": -1.41508, "GlobalID": "96c5eab3-537f-44de-9c92-b9c48bd26406"}}, {"type": "Feature", "id": 16386, "geometry": {"type": "Polygon", "coordinates": [[[-1.44391369348849, 50.933243424215], [-1.43808421478281, 50.932191787275], [-1.43801566610134, 50.9292032807531], [-1.44107367516236, 50.9300267142141], [-1.43813370755138, 50.9285622472328], [-1.44193652853578, 50.9262361579022], [-1.44791767943759, 50.93087967534], [-1.44779662306754, 50.9313755904337], [-1.44494515760774, 50.9333636800158], [-1.44391369348849, 50.933243424215]]]}, "properties": {"FID": 16386, "LSOA21CD": "E01017253", "LSOA21NM": "Southampton 010D", "LSOA21NMW": " ", "BNG_E": 439242, "BNG_N": 114616, "LAT": 50.92966, "LONG": -1.44298, "GlobalID": "ca08529d-e928-4159-b490-e92f9d9d010e"}}, {"type": "Feature", "id": 16387, "geometry": {"type": "Polygon", "coordinates": [[[-1.42971710398241, 50.9299068521918], [-1.42708241286443, 50.929635997936], [-1.42568904447046, 50.9281844987431], [-1.42570862821071, 50.9244792630826], [-1.42792857544461, 50.9245520729999], [-1.43129988414127, 50.9279986917803], [-1.43255551508414, 50.9299044164873], [-1.43194630389925, 50.9318179763212], [-1.42971710398241, 50.9299068521918]]]}, "properties": {"FID": 16387, "LSOA21CD": "E01017254", "LSOA21NM": "Southampton 011E", "LSOA21NMW": " ", "BNG_E": 440276, "BNG_N": 114342, "LAT": 50.92712, "LONG": -1.42829, "GlobalID": "62f9c74e-7fb5-4301-ba5e-530b3cbbab16"}}, {"type": "Feature", "id": 16388, "geometry": {"type": "Polygon", "coordinates": [[[-1.3519832738761, 50.9054323269019], [-1.35187569980849, 50.9049637577536], [-1.35721909127516, 50.9029727360374], [-1.36066225899741, 50.9007376932998], [-1.36456506635625, 50.9025148219746], [-1.36243346442545, 50.9045376675434], [-1.36067650180783, 50.9061910171658], [-1.36004358859038, 50.9088167224965], [-1.3519832738761, 50.9054323269019]]]}, "properties": {"FID": 16388, "LSOA21CD": "E01017255", "LSOA21NM": "Southampton 030A", "LSOA21NMW": " ", "BNG_E": 445260, "BNG_N": 111896, "LAT": 50.90476, "LONG": -1.35769, "GlobalID": "4faee08e-cdd2-41b7-8ac3-ee271b51873b"}}, {"type": "Feature", "id": 16389, "geometry": {"type": "Polygon", "coordinates": [[[-1.35409425951591, 50.9123920232352], [-1.3451380814968, 50.9080191011158], [-1.34474269128751, 50.907826755565], [-1.35073720739919, 50.9060794657232], [-1.3519832738761, 50.9054323269019], [-1.36004358859038, 50.9088167224965], [-1.35889772828195, 50.9091076631446], [-1.35613497645753, 50.9134848549502], [-1.35409425951591, 50.9123920232352]]]}, "properties": {"FID": 16389, "LSOA21CD": "E01017256", "LSOA21NM": "Southampton 026A", "LSOA21NMW": " ", "BNG_E": 445579, "BNG_N": 112412, "LAT": 50.90937, "LONG": -1.35308, "GlobalID": "0ffce7e2-a446-4211-a97d-5089d895429e"}}, {"type": "Feature", "id": 16390, "geometry": {"type": "Polygon", "coordinates": [[[-1.33945444036942, 50.9051840827181], [-1.33688607412227, 50.9039398021681], [-1.34088278108519, 50.9024804348961], [-1.34063135003093, 50.9046071154511], [-1.34533537343683, 50.9028859153976], [-1.34449513645472, 50.9056804119243], [-1.35073720739919, 50.9060794657232], [-1.34474269128751, 50.907826755565], [-1.33945444036942, 50.9051840827181]]]}, "properties": {"FID": 16390, "LSOA21CD": "E01017257", "LSOA21NM": "Southampton 026B", "LSOA21NMW": " ", "BNG_E": 446235, "BNG_N": 111967, "LAT": 50.90532, "LONG": -1.34381, "GlobalID": "5b31ca14-862f-4ce8-a14b-3c2b0794ee38"}}, {"type": "Feature", "id": 16391, "geometry": {"type": "Polygon", "coordinates": [[[-1.35291824086239, 50.901454827815], [-1.35191202146242, 50.8995931379628], [-1.35938538777166, 50.8999298691613], [-1.35721909127516, 50.9029727360374], [-1.35187569980849, 50.9049637577536], [-1.34863610174739, 50.9036723754406], [-1.35291824086239, 50.901454827815]]]}, "properties": {"FID": 16391, "LSOA21CD": "E01017258", "LSOA21NM": "Southampton 030B", "LSOA21NMW": " ", "BNG_E": 445523, "BNG_N": 111587, "LAT": 50.90196, "LONG": -1.35398, "GlobalID": "a7bcd0dc-77f9-442a-a3c1-2f640fff46fa"}}, {"type": "Feature", "id": 16392, "geometry": {"type": "Polygon", "coordinates": [[[-1.34449513645472, 50.9056804119243], [-1.34533537343683, 50.9028859153976], [-1.34063135003093, 50.9046071154511], [-1.34088278108519, 50.9024804348961], [-1.34541847112899, 50.900967345535], [-1.35042730823988, 50.9014420281223], [-1.35175067370159, 50.9015674078733], [-1.34863610174739, 50.9036723754406], [-1.35187569980849, 50.9049637577536], [-1.3519832738761, 50.9054323269019], [-1.35073720739919, 50.9060794657232], [-1.34449513645472, 50.9056804119243]]]}, "properties": {"FID": 16392, "LSOA21CD": "E01017259", "LSOA21NM": "Southampton 026C", "LSOA21NMW": " ", "BNG_E": 446091, "BNG_N": 111656, "LAT": 50.90254, "LONG": -1.3459, "GlobalID": "6aaf7c60-408a-4636-9572-f682ebb531d1"}}, {"type": "Feature", "id": 16393, "geometry": {"type": "Polygon", "coordinates": [[[-1.35175067370159, 50.9015674078733], [-1.35042730823988, 50.9014420281223], [-1.34541847112899, 50.900967345535], [-1.34358656766374, 50.8999176720368], [-1.3435175270623, 50.8989722185419], [-1.34836652430503, 50.895665075419], [-1.35097490670657, 50.8980064539838], [-1.35191202146242, 50.8995931379628], [-1.35291824086239, 50.901454827815], [-1.34863610174739, 50.9036723754406], [-1.35175067370159, 50.9015674078733]]]}, "properties": {"FID": 16393, "LSOA21CD": "E01017260", "LSOA21NM": "Southampton 026D", "LSOA21NMW": " ", "BNG_E": 445935, "BNG_N": 111238, "LAT": 50.89879, "LONG": -1.34817, "GlobalID": "a4a1d463-10fb-4220-842f-b1823e75943f"}}, {"type": "Feature", "id": 16394, "geometry": {"type": "Polygon", "coordinates": [[[-1.35191202146242, 50.8995931379628], [-1.35097490670657, 50.8980064539838], [-1.35210516154923, 50.8941779043182], [-1.35668013589955, 50.8937943657807], [-1.35792737694213, 50.8942735755751], [-1.3653522298261, 50.896831523693], [-1.36066225899741, 50.9007376932998], [-1.35721909127516, 50.9029727360374], [-1.35938538777166, 50.8999298691613], [-1.35191202146242, 50.8995931379628]]]}, "properties": {"FID": 16394, "LSOA21CD": "E01017261", "LSOA21NM": "Southampton 030C", "LSOA21NMW": " ", "BNG_E": 445398, "BNG_N": 111250, "LAT": 50.89894, "LONG": -1.3558, "GlobalID": "e74ea680-617b-4998-9eed-fb4dfca7fbdb"}}, {"type": "Feature", "id": 16395, "geometry": {"type": "Polygon", "coordinates": [[[-1.33505506156448, 50.8973713689061], [-1.34420342888915, 50.8909384444679], [-1.34836652430503, 50.895665075419], [-1.3435175270623, 50.8989722185419], [-1.34058217543981, 50.8962378900125], [-1.33505506156448, 50.8973713689061]]]}, "properties": {"FID": 16395, "LSOA21CD": "E01017262", "LSOA21NM": "Southampton 026E", "LSOA21NMW": " ", "BNG_E": 446345, "BNG_N": 110849, "LAT": 50.89526, "LONG": -1.34239, "GlobalID": "bcc0c2a3-9841-4023-9ffd-46052cf407a1"}}, {"type": "Feature", "id": 16396, "geometry": {"type": "Polygon", "coordinates": [[[-1.34836652430503, 50.895665075419], [-1.34420342888915, 50.8909384444679], [-1.34938522043059, 50.8885877202922], [-1.35668013589955, 50.8937943657807], [-1.35210516154923, 50.8941779043182], [-1.35097490670657, 50.8980064539838], [-1.34836652430503, 50.895665075419]]]}, "properties": {"FID": 16396, "LSOA21CD": "E01017263", "LSOA21NM": "Southampton 030D", "LSOA21NMW": " ", "BNG_E": 445781, "BNG_N": 110621, "LAT": 50.89325, "LONG": -1.35044, "GlobalID": "5793c29e-7238-45d5-9900-afc1d089e5c5"}}, {"type": "Feature", "id": 16397, "geometry": {"type": "Polygon", "coordinates": [[[-1.37022550295733, 50.9357836183192], [-1.37092526684278, 50.9357201907198], [-1.37977455387769, 50.9366596768566], [-1.38015343889063, 50.939233757936], [-1.38000086352207, 50.9400927499602], [-1.37994430203953, 50.9409648733734], [-1.37610001977122, 50.9421705516195], [-1.37022550295733, 50.9357836183192]]]}, "properties": {"FID": 16397, "LSOA21CD": "E01017264", "LSOA21NM": "Southampton 003A", "LSOA21NMW": " ", "BNG_E": 443942, "BNG_N": 115691, "LAT": 50.93899, "LONG": -1.37597, "GlobalID": "fdccd5b5-01be-4ff1-800a-cf855bacdfd3"}}, {"type": "Feature", "id": 16398, "geometry": {"type": "Polygon", "coordinates": [[[-1.35471039476587, 50.9409664164115], [-1.35894360704977, 50.9379964145029], [-1.36815500794834, 50.9359327684736], [-1.37022550295733, 50.9357836183192], [-1.37610001977122, 50.9421705516195], [-1.37093530921929, 50.9460586306963], [-1.3669194500604, 50.9468683681445], [-1.35471039476587, 50.9409664164115]]]}, "properties": {"FID": 16398, "LSOA21CD": "E01017265", "LSOA21NM": "Southampton 003B", "LSOA21NMW": " ", "BNG_E": 444728, "BNG_N": 115965, "LAT": 50.94139, "LONG": -1.36475, "GlobalID": "6a0581be-6340-4737-9ffd-983bbaf56575"}}, {"type": "Feature", "id": 16399, "geometry": {"type": "Polygon", "coordinates": [[[-1.38015343889063, 50.939233757936], [-1.38127175834129, 50.9365185372888], [-1.38685177334255, 50.9385226633269], [-1.3896744196666, 50.9385395792172], [-1.38883646609023, 50.9400951868424], [-1.38000086352207, 50.9400927499602], [-1.38015343889063, 50.939233757936]]]}, "properties": {"FID": 16399, "LSOA21CD": "E01017266", "LSOA21NM": "Southampton 005A", "LSOA21NMW": " ", "BNG_E": 443360, "BNG_N": 115676, "LAT": 50.9389, "LONG": -1.38426, "GlobalID": "f1efb052-7141-4ed1-a063-c621a2969a14"}}, {"type": "Feature", "id": 16400, "geometry": {"type": "Polygon", "coordinates": [[[-1.37092526684278, 50.9357201907198], [-1.37950539683922, 50.9342852340511], [-1.38749525960258, 50.9362821961234], [-1.38685177334255, 50.9385226633269], [-1.38127175834129, 50.9365185372888], [-1.38015343889063, 50.939233757936], [-1.37977455387769, 50.9366596768566], [-1.37092526684278, 50.9357201907198]]]}, "properties": {"FID": 16400, "LSOA21CD": "E01017267", "LSOA21NM": "Southampton 005B", "LSOA21NMW": " ", "BNG_E": 443853, "BNG_N": 115430, "LAT": 50.93665, "LONG": -1.37727, "GlobalID": "20bf2cce-89cb-4875-bfbc-493055979298"}}, {"type": "Feature", "id": 16401, "geometry": {"type": "Polygon", "coordinates": [[[-1.38193262523215, 50.9460373785468], [-1.38346921314985, 50.9422313533569], [-1.38944504680122, 50.9438762228741], [-1.39082611550871, 50.9465190183764], [-1.38193262523215, 50.9460373785468]]]}, "properties": {"FID": 16401, "LSOA21CD": "E01017270", "LSOA21NM": "Southampton 003C", "LSOA21NMW": " ", "BNG_E": 443279, "BNG_N": 116283, "LAT": 50.94436, "LONG": -1.38534, "GlobalID": "d4d13c91-c596-4aa5-acd7-182e1b67be28"}}, {"type": "Feature", "id": 16402, "geometry": {"type": "Polygon", "coordinates": [[[-1.37093530921929, 50.9460586306963], [-1.37610001977122, 50.9421705516195], [-1.37994430203953, 50.9409648733734], [-1.38346921314985, 50.9422313533569], [-1.38193262523215, 50.9460373785468], [-1.37989172658936, 50.9475183419376], [-1.37093530921929, 50.9460586306963]]]}, "properties": {"FID": 16402, "LSOA21CD": "E01017271", "LSOA21NM": "Southampton 003D", "LSOA21NMW": " ", "BNG_E": 443851, "BNG_N": 116249, "LAT": 50.94401, "LONG": -1.3772, "GlobalID": "3ca04ada-9b33-4961-a605-da8c02c8b071"}}, {"type": "Feature", "id": 16403, "geometry": {"type": "Polygon", "coordinates": [[[-1.38346921314985, 50.9422313533569], [-1.37994430203953, 50.9409648733734], [-1.38000086352207, 50.9400927499602], [-1.38883646609023, 50.9400951868424], [-1.38892077225642, 50.9401501330993], [-1.39134502163935, 50.9424246028094], [-1.38944504680122, 50.9438762228741], [-1.38346921314985, 50.9422313533569]]]}, "properties": {"FID": 16403, "LSOA21CD": "E01017272", "LSOA21NM": "Southampton 005E", "LSOA21NMW": " ", "BNG_E": 443218, "BNG_N": 116014, "LAT": 50.94195, "LONG": -1.38624, "GlobalID": "2bb3580d-5daa-4bba-b67e-93e87c4b0f5d"}}, {"type": "Feature", "id": 16404, "geometry": {"type": "Polygon", "coordinates": [[[-1.3679860600645, 50.8971632365765], [-1.37026855383073, 50.8934064446124], [-1.37708275242744, 50.8933259897866], [-1.3777906798932, 50.8934435496988], [-1.37309694449148, 50.897682273892], [-1.3679860600645, 50.8971632365765]]]}, "properties": {"FID": 16404, "LSOA21CD": "E01017273", "LSOA21NM": "Southampton 031A", "LSOA21NMW": " ", "BNG_E": 444239, "BNG_N": 110844, "LAT": 50.89538, "LONG": -1.37233, "GlobalID": "a7b05e5d-bc48-4c64-92c9-f0de5cac0ab3"}}, {"type": "Feature", "id": 16405, "geometry": {"type": "Polygon", "coordinates": [[[-1.35424899230355, 50.8858987237875], [-1.35826434956119, 50.8851589287822], [-1.36151514811993, 50.8859807419731], [-1.36652569255296, 50.8898014282602], [-1.35762669959763, 50.8912143825839], [-1.35353994602409, 50.8908246898147], [-1.35845384162411, 50.8877468287953], [-1.35424899230355, 50.8858987237875]]]}, "properties": {"FID": 16405, "LSOA21CD": "E01017274", "LSOA21NM": "Southampton 032A", "LSOA21NMW": " ", "BNG_E": 445081, "BNG_N": 110120, "LAT": 50.8888, "LONG": -1.36045, "GlobalID": "170d606c-b62e-48ca-818c-4f6199480e6f"}}, {"type": "Feature", "id": 16406, "geometry": {"type": "Polygon", "coordinates": [[[-1.3653522298261, 50.896831523693], [-1.35792737694213, 50.8942735755751], [-1.35762669959763, 50.8912143825839], [-1.36652569255296, 50.8898014282602], [-1.36851466026807, 50.8891618321231], [-1.37026855383073, 50.8934064446124], [-1.3679860600645, 50.8971632365765], [-1.36962981546325, 50.8982869317386], [-1.3653522298261, 50.896831523693]]]}, "properties": {"FID": 16406, "LSOA21CD": "E01017275", "LSOA21NM": "Southampton 031B", "LSOA21NMW": " ", "BNG_E": 444807, "BNG_N": 110645, "LAT": 50.89355, "LONG": -1.36428, "GlobalID": "82c24453-6f5f-409a-afa3-ae35cb0b75b1"}}, {"type": "Feature", "id": 16407, "geometry": {"type": "Polygon", "coordinates": [[[-1.36962981546325, 50.8982869317386], [-1.3679860600645, 50.8971632365765], [-1.37309694449148, 50.897682273892], [-1.3777906798932, 50.8934435496988], [-1.38033703999676, 50.895275180422], [-1.38286114362989, 50.8950018729707], [-1.38272715993989, 50.8978479431135], [-1.38254250887923, 50.8979267861257], [-1.37726212080202, 50.8979689088452], [-1.36995435906373, 50.8983878259031], [-1.36962981546325, 50.8982869317386]]]}, "properties": {"FID": 16407, "LSOA21CD": "E01017276", "LSOA21NM": "Southampton 031C", "LSOA21NMW": " ", "BNG_E": 443858, "BNG_N": 110933, "LAT": 50.89621, "LONG": -1.37774, "GlobalID": "02e3573a-65db-4306-8614-218ca26f3b12"}}, {"type": "Feature", "id": 16408, "geometry": {"type": "Polygon", "coordinates": [[[-1.35668013589955, 50.8937943657807], [-1.34938522043059, 50.8885877202922], [-1.35424899230355, 50.8858987237875], [-1.35845384162411, 50.8877468287953], [-1.35353994602409, 50.8908246898147], [-1.35762669959763, 50.8912143825839], [-1.35792737694213, 50.8942735755751], [-1.35668013589955, 50.8937943657807]]]}, "properties": {"FID": 16408, "LSOA21CD": "E01017277", "LSOA21NM": "Southampton 032B", "LSOA21NMW": " ", "BNG_E": 445528, "BNG_N": 110058, "LAT": 50.88821, "LONG": -1.3541, "GlobalID": "aa51305e-1da5-422c-a7f6-e8e01728e7d7"}}, {"type": "Feature", "id": 16409, "geometry": {"type": "Polygon", "coordinates": [[[-1.36851466026807, 50.8891618321231], [-1.37081812725138, 50.8878858012563], [-1.3742455086449, 50.8847783747312], [-1.38300066062368, 50.8893197108098], [-1.38086413914105, 50.8890175845475], [-1.37374736439362, 50.8900046745181], [-1.37708275242744, 50.8933259897866], [-1.37026855383073, 50.8934064446124], [-1.36851466026807, 50.8891618321231]]]}, "properties": {"FID": 16409, "LSOA21CD": "E01017279", "LSOA21NM": "Southampton 031E", "LSOA21NMW": " ", "BNG_E": 444002, "BNG_N": 110046, "LAT": 50.88822, "LONG": -1.3758, "GlobalID": "19409b75-3da9-4400-9f6e-af8712a9b65e"}}, {"type": "Feature", "id": 16410, "geometry": {"type": "Polygon", "coordinates": [[[-1.36151514811993, 50.8859807419731], [-1.36194984007901, 50.8840276842251], [-1.37081812725138, 50.8878858012563], [-1.36851466026807, 50.8891618321231], [-1.36652569255296, 50.8898014282602], [-1.36151514811993, 50.8859807419731]]]}, "properties": {"FID": 16410, "LSOA21CD": "E01017280", "LSOA21NM": "Southampton 032C", "LSOA21NMW": " ", "BNG_E": 444726, "BNG_N": 109935, "LAT": 50.88717, "LONG": -1.36552, "GlobalID": "1a208e13-89a5-428c-8d13-704be17a3c70"}}, {"type": "Feature", "id": 16411, "geometry": {"type": "Polygon", "coordinates": [[[-1.36151514811993, 50.8859807419731], [-1.35826434956119, 50.8851589287822], [-1.36505082915397, 50.8799970833426], [-1.36511119785051, 50.880038751102], [-1.3742455086449, 50.8847783747312], [-1.37081812725138, 50.8878858012563], [-1.36194984007901, 50.8840276842251], [-1.36151514811993, 50.8859807419731]]]}, "properties": {"FID": 16411, "LSOA21CD": "E01017281", "LSOA21NM": "Southampton 032D", "LSOA21NMW": " ", "BNG_E": 444765, "BNG_N": 109585, "LAT": 50.88402, "LONG": -1.36501, "GlobalID": "c5eea1cf-7001-46cc-85b5-674fd5327d9a"}}, {"type": "Feature", "id": 31058, "geometry": {"type": "Polygon", "coordinates": [[[-1.4058397265437, 50.9165549092507], [-1.40557559212797, 50.9165179755318], [-1.40126130247821, 50.9159096363774], [-1.39958725066395, 50.9146288520309], [-1.40119382693371, 50.9115199828608], [-1.40164157778218, 50.9106015121349], [-1.40487321044096, 50.9104994283767], [-1.40647724866216, 50.9129155507741], [-1.4063257914813, 50.9139926882793], [-1.40647947700979, 50.9166377902516], [-1.4058397265437, 50.9165549092507]]]}, "properties": {"FID": 31058, "LSOA21CD": "E01032738", "LSOA21NM": "Southampton 022F", "LSOA21NMW": " ", "BNG_E": 442075, "BNG_N": 112803, "LAT": 50.91316, "LONG": -1.40288, "GlobalID": "8e7161f3-ed62-4bab-9073-c395bb1338c8"}}, {"type": "Feature", "id": 31065, "geometry": {"type": "Polygon", "coordinates": [[[-1.39174034033736, 50.902011339417], [-1.39618516220333, 50.8992108723578], [-1.39889146307462, 50.9004536881156], [-1.3942204084521, 50.9039228781572], [-1.39301365131225, 50.9021571974111], [-1.39262465195012, 50.9046661795364], [-1.3920639013637, 50.9047141225067], [-1.39174034033736, 50.902011339417]]]}, "properties": {"FID": 31065, "LSOA21CD": "E01032745", "LSOA21NM": "Southampton 033C", "LSOA21NMW": " ", "BNG_E": 442623, "BNG_N": 111585, "LAT": 50.90216, "LONG": -1.39522, "GlobalID": "9b1a6129-fb8c-4ad4-ab2a-0e810dc7ce59"}}, {"type": "Feature", "id": 31066, "geometry": {"type": "Polygon", "coordinates": [[[-1.40222617285215, 50.8994219616589], [-1.3997886881909, 50.8974836526608], [-1.40410984546334, 50.8973241590895], [-1.40387889879318, 50.9000780329415], [-1.40222617285215, 50.8994219616589]]]}, "properties": {"FID": 31066, "LSOA21CD": "E01032746", "LSOA21NM": "Southampton 034C", "LSOA21NMW": " ", "BNG_E": 442122, "BNG_N": 111192, "LAT": 50.89867, "LONG": -1.40239, "GlobalID": "7f9926ec-6b8b-4c24-a1b8-e0f0bb2259ea"}}, {"type": "Feature", "id": 31067, "geometry": {"type": "Polygon", "coordinates": [[[-1.40387889879318, 50.9000780329415], [-1.40410984546334, 50.8973241590895], [-1.3997886881909, 50.8974836526608], [-1.39862263440588, 50.897658804139], [-1.39122035436909, 50.8974264207547], [-1.39116068445726, 50.8950819383042], [-1.39286115422394, 50.8948878822274], [-1.39114886981781, 50.8946177206567], [-1.39111473175496, 50.8932762673758], [-1.38913176696896, 50.8931829638136], [-1.39266401002129, 50.8884031544274], [-1.39639054987442, 50.8925600900212], [-1.39327084197526, 50.8830557238962], [-1.39948910086346, 50.8883325031717], [-1.39902240076432, 50.8945485156857], [-1.4008217835614, 50.8902853813678], [-1.40354168653182, 50.8956283718855], [-1.40960297902693, 50.8978978059904], [-1.4058248564301, 50.9004744807796], [-1.40387889879318, 50.9000780329415]]]}, "properties": {"FID": 31067, "LSOA21CD": "E01032748", "LSOA21NM": "Southampton 034D", "LSOA21NMW": " ", "BNG_E": 442325, "BNG_N": 110846, "LAT": 50.89554, "LONG": -1.39955, "GlobalID": "3e932c07-801c-4abe-b264-6d5deb60c32d"}}, {"type": "Feature", "id": 31068, "geometry": {"type": "Polygon", "coordinates": [[[-1.39539450586773, 50.9119495913989], [-1.39649006456839, 50.9117543847921], [-1.40119382693371, 50.9115199828608], [-1.39958725066395, 50.9146288520309], [-1.39734396592908, 50.9152340219136], [-1.39539450586773, 50.9119495913989]]]}, "properties": {"FID": 31068, "LSOA21CD": "E01032750", "LSOA21NM": "Southampton 022G", "LSOA21NMW": " ", "BNG_E": 442445, "BNG_N": 112858, "LAT": 50.91362, "LONG": -1.39761, "GlobalID": "1e77bb0b-032a-4049-aeec-3649b3dcaaec"}}, {"type": "Feature", "id": 31069, "geometry": {"type": "Polygon", "coordinates": [[[-1.39889146307462, 50.9004536881156], [-1.39618516220333, 50.8992108723578], [-1.39398527373656, 50.8978418336615], [-1.39862263440588, 50.897658804139], [-1.3997886881909, 50.8974836526608], [-1.40222617285215, 50.8994219616589], [-1.40080248317021, 50.9005218145621], [-1.39889146307462, 50.9004536881156]]]}, "properties": {"FID": 31069, "LSOA21CD": "E01032751", "LSOA21NM": "Southampton 033D", "LSOA21NMW": " ", "BNG_E": 442386, "BNG_N": 111225, "LAT": 50.89894, "LONG": -1.39863, "GlobalID": "de519add-7ccc-402e-9479-778c9db82a37"}}, {"type": "Feature", "id": 31070, "geometry": {"type": "Polygon", "coordinates": [[[-1.39313011656234, 50.9343173175424], [-1.38905090692558, 50.9285599106577], [-1.39112889076052, 50.927070474665], [-1.39563443533956, 50.9251973766712], [-1.39620660823407, 50.925305332458], [-1.39804148071598, 50.9272953652916], [-1.39360088413273, 50.92963980504], [-1.39524517349998, 50.9322895358489], [-1.40076270814364, 50.932974919202], [-1.40243984987329, 50.9286064814672], [-1.40059388871639, 50.9265396926735], [-1.40560833863116, 50.9267773848037], [-1.40586361768649, 50.9296391617814], [-1.40652969024469, 50.9358433353709], [-1.40240681121511, 50.9369795313098], [-1.39914198358597, 50.93781058962], [-1.3964299200943, 50.937993333579], [-1.39313011656234, 50.9343173175424]]]}, "properties": {"FID": 31070, "LSOA21CD": "E01032753", "LSOA21NM": "Southampton 009F", "LSOA21NMW": " ", "BNG_E": 442434, "BNG_N": 115251, "LAT": 50.93514, "LONG": -1.39748, "GlobalID": "17ba6d1c-ba23-4f56-86f4-f00f0d911e64"}}, {"type": "Feature", "id": 31071, "geometry": {"type": "Polygon", "coordinates": [[[-1.39262465195012, 50.9046661795364], [-1.39301365131225, 50.9021571974111], [-1.3942204084521, 50.9039228781572], [-1.39821114979024, 50.9080298637101], [-1.39470238710136, 50.9078567951864], [-1.39216437378912, 50.9081763343539], [-1.39262465195012, 50.9046661795364]]]}, "properties": {"FID": 31071, "LSOA21CD": "E01032755", "LSOA21NM": "Southampton 033A", "LSOA21NMW": " ", "BNG_E": 442733, "BNG_N": 111920, "LAT": 50.90517, "LONG": -1.39362, "GlobalID": "05f38e9e-a7a4-4d51-89bf-d65ee823d9ba"}}, {"type": "Feature", "id": 33437, "geometry": {"type": "Polygon", "coordinates": [[[-1.38685177334255, 50.9385226633269], [-1.38749525960258, 50.9362821961234], [-1.38498924963867, 50.9321900992537], [-1.39313011656234, 50.9343173175424], [-1.3964299200943, 50.937993333579], [-1.3896744196666, 50.9385395792172], [-1.38685177334255, 50.9385226633269]]]}, "properties": {"FID": 33437, "LSOA21CD": "E01035442", "LSOA21NM": "Southampton 005G", "LSOA21NMW": " ", "BNG_E": 442933, "BNG_N": 115356, "LAT": 50.93605, "LONG": -1.39037, "GlobalID": "5b378dbb-e1c2-4d7b-a185-fb72c9dc8fef"}}, {"type": "Feature", "id": 33438, "geometry": {"type": "Polygon", "coordinates": [[[-1.37950539683922, 50.9342852340511], [-1.38055626538659, 50.9324258973596], [-1.38082455327331, 50.9323702938748], [-1.38260462496149, 50.9320013507015], [-1.38498924963867, 50.9321900992537], [-1.38749525960258, 50.9362821961234], [-1.37950539683922, 50.9342852340511]]]}, "properties": {"FID": 33438, "LSOA21CD": "E01035443", "LSOA21NM": "Southampton 005H", "LSOA21NMW": " ", "BNG_E": 443394, "BNG_N": 115143, "LAT": 50.9341, "LONG": -1.38384, "GlobalID": "35ce2775-f19e-4371-87f4-632f9743d190"}}, {"type": "Feature", "id": 33439, "geometry": {"type": "Polygon", "coordinates": [[[-1.40118042639347, 50.9100966924454], [-1.40453405920194, 50.9069066398366], [-1.40080248317021, 50.9005218145621], [-1.40222617285215, 50.8994219616589], [-1.40387889879318, 50.9000780329415], [-1.4058248564301, 50.9004744807796], [-1.40622747405552, 50.9049578663633], [-1.41292492808945, 50.9068651879857], [-1.40836667671215, 50.9086257507548], [-1.40487321044096, 50.9104994283767], [-1.40164157778218, 50.9106015121349], [-1.40118042639347, 50.9100966924454]]]}, "properties": {"FID": 33439, "LSOA21CD": "E01035444", "LSOA21NM": "Southampton 023E", "LSOA21NMW": " ", "BNG_E": 441838, "BNG_N": 112106, "LAT": 50.90691, "LONG": -1.40633, "GlobalID": "7aa6305b-e1d3-456d-ae74-d71a74187127"}}, {"type": "Feature", "id": 33440, "geometry": {"type": "Polygon", "coordinates": [[[-1.41133801821128, 50.9110152732332], [-1.40836667671215, 50.9086257507548], [-1.41292492808945, 50.9068651879857], [-1.40622747405552, 50.9049578663633], [-1.4058248564301, 50.9004744807796], [-1.40960297902693, 50.8978978059904], [-1.41672703874445, 50.9005645154562], [-1.41810834763497, 50.900993198424], [-1.41534680051632, 50.9098812085605], [-1.41388496957029, 50.912173130608], [-1.41133801821128, 50.9110152732332]]]}, "properties": {"FID": 33440, "LSOA21CD": "E01035445", "LSOA21NM": "Southampton 023F", "LSOA21NMW": " ", "BNG_E": 441500, "BNG_N": 111583, "LAT": 50.90223, "LONG": -1.41119, "GlobalID": "571f6350-da36-456e-b79d-88949f4c8841"}}, {"type": "Feature", "id": 33441, "geometry": {"type": "MultiPolygon", "coordinates": [[[[-1.38305962481069, 50.8907850483947], [-1.38086413914105, 50.8890175845475], [-1.38300066062368, 50.8893197108098], [-1.38312553935544, 50.8893844750922], [-1.38305962481069, 50.8907850483947]]], [[[-1.38033703999676, 50.895275180422], [-1.38300750989262, 50.8918923196327], [-1.38286114362989, 50.8950018729707], [-1.38033703999676, 50.895275180422]]]]}, "properties": {"FID": 33441, "LSOA21CD": "E01035446", "LSOA21NM": "Southampton 031F", "LSOA21NMW": " ", "BNG_E": 443541, "BNG_N": 110747, "LAT": 50.89456, "LONG": -1.38227, "GlobalID": "d614798e-d56c-445c-af50-7a5c54910746"}}, {"type": "Feature", "id": 33442, "geometry": {"type": "Polygon", "coordinates": [[[-1.3777906798932, 50.8934435496988], [-1.37708275242744, 50.8933259897866], [-1.37374736439362, 50.8900046745181], [-1.38086413914105, 50.8890175845475], [-1.38305962481069, 50.8907850483947], [-1.38300750989262, 50.8918923196327], [-1.38033703999676, 50.895275180422], [-1.3777906798932, 50.8934435496988]]]}, "properties": {"FID": 33442, "LSOA21CD": "E01035447", "LSOA21NM": "Southampton 031G", "LSOA21NMW": " ", "BNG_E": 443731, "BNG_N": 110468, "LAT": 50.89204, "LONG": -1.3796, "GlobalID": "68c60db7-8237-4539-acdc-452fa3c328e8"}}, {"type": "Feature", "id": 33443, "geometry": {"type": "Polygon", "coordinates": [[[-1.39122035436909, 50.8974264207547], [-1.39862263440588, 50.897658804139], [-1.39398527373656, 50.8978418336615], [-1.39618516220333, 50.8992108723578], [-1.39174034033736, 50.902011339417], [-1.39122035436909, 50.8974264207547]]]}, "properties": {"FID": 33443, "LSOA21CD": "E01035448", "LSOA21NM": "Southampton 034A", "LSOA21NMW": " ", "BNG_E": 442793, "BNG_N": 111287, "LAT": 50.89947, "LONG": -1.39284, "GlobalID": "a228283c-bbb2-4ac3-8d4c-f55b9d990bef"}}, {"type": "Feature", "id": 33444, "geometry": {"type": "MultiPolygon", "coordinates": [[[[-1.38839278651565, 50.8941828130695], [-1.38913176696896, 50.8931829638136], [-1.39111473175496, 50.8932762673758], [-1.39114886981781, 50.8946177206567], [-1.38839278651565, 50.8941828130695]]], [[[-1.38799378075025, 50.8954432700669], [-1.39116068445726, 50.8950819383042], [-1.39122035436909, 50.8974264207547], [-1.39174034033736, 50.902011339417], [-1.3920639013637, 50.9047141225067], [-1.38827985285347, 50.9049819654552], [-1.38799378075025, 50.8954432700669]]]]}, "properties": {"FID": 33444, "LSOA21CD": "E01035449", "LSOA21NM": "Southampton 034B", "LSOA21NMW": " ", "BNG_E": 443013, "BNG_N": 111762, "LAT": 50.90373, "LONG": -1.38966, "GlobalID": "da96ef75-7ae1-4d9b-86db-d3dffd9aece8"}}]}